{
  "type": "FeatureCollection",
  "features": [
    {
      "type": "Feature",
      "id": "bcws-incident-V61699",
      "geometry": {
        "bbox": [
          -123.85145,
          48.968967,
          -123.85145,
          48.968967
        ],
        "type": "Point",
        "coordinates": [
          -123.85145,
          48.968967
        ]
      },
      "properties": {
        "FIRE_NUMBER": "V61699",
        "INCIDENT_NAME": "V61699",
        "INCIDENT_NUMBER_LABEL": "V61699",
        "INCIDENT_FIRE_YEAR": 2026,
        "FIRE_STATUS": "Out of Control",
        "FIRE_SIZE_HECTARES": null,
        "TRACK_DATE": null,
        "FIRE_URL": "https://wildfiresituation.nrs.gov.bc.ca/incidents?fireYear=2026&incidentNumber=V61699",
        "DATA_SOURCE": "incident-point"
      }
    },
    {
      "type": "Feature",
      "id": "bcws-incident-V10942",
      "geometry": {
        "bbox": [
          -121.0202,
          49.2069,
          -121.0202,
          49.2069
        ],
        "type": "Point",
        "coordinates": [
          -121.0202,
          49.2069
        ]
      },
      "properties": {
        "FIRE_NUMBER": "V10942",
        "INCIDENT_NAME": "Norwegian Creek",
        "INCIDENT_NUMBER_LABEL": "V10942",
        "INCIDENT_FIRE_YEAR": 2026,
        "FIRE_STATUS": "Out of Control",
        "FIRE_SIZE_HECTARES": null,
        "TRACK_DATE": null,
        "FIRE_URL": "https://wildfiresituation.nrs.gov.bc.ca/incidents?fireYear=2026&incidentNumber=V10942",
        "DATA_SOURCE": "incident-point"
      }
    },
    {
      "type": "Feature",
      "id": "bcws-incident-N51266",
      "geometry": {
        "bbox": [
          -117.423267,
          50.755317,
          -117.423267,
          50.755317
        ],
        "type": "Point",
        "coordinates": [
          -117.423267,
          50.755317
        ]
      },
      "properties": {
        "FIRE_NUMBER": "N51266",
        "INCIDENT_NAME": "N51266",
        "INCIDENT_NUMBER_LABEL": "N51266",
        "INCIDENT_FIRE_YEAR": 2026,
        "FIRE_STATUS": "Out of Control",
        "FIRE_SIZE_HECTARES": null,
        "TRACK_DATE": null,
        "FIRE_URL": "https://wildfiresituation.nrs.gov.bc.ca/incidents?fireYear=2026&incidentNumber=N51266",
        "DATA_SOURCE": "incident-point"
      }
    },
    {
      "type": "Feature",
      "id": "bcws-incident-N41324",
      "geometry": {
        "bbox": [
          -118.236917,
          51.5135,
          -118.236917,
          51.5135
        ],
        "type": "Point",
        "coordinates": [
          -118.236917,
          51.5135
        ]
      },
      "properties": {
        "FIRE_NUMBER": "N41324",
        "INCIDENT_NAME": "N41324",
        "INCIDENT_NUMBER_LABEL": "N41324",
        "INCIDENT_FIRE_YEAR": 2026,
        "FIRE_STATUS": "Out of Control",
        "FIRE_SIZE_HECTARES": null,
        "TRACK_DATE": null,
        "FIRE_URL": "https://wildfiresituation.nrs.gov.bc.ca/incidents?fireYear=2026&incidentNumber=N41324",
        "DATA_SOURCE": "incident-point"
      }
    },
    {
      "type": "Feature",
      "id": "bcws-incident-K61186",
      "geometry": {
        "bbox": [
          -120.562383,
          49.0016,
          -120.562383,
          49.0016
        ],
        "type": "Point",
        "coordinates": [
          -120.562383,
          49.0016
        ]
      },
      "properties": {
        "FIRE_NUMBER": "K61186",
        "INCIDENT_NAME": "K61186",
        "INCIDENT_NUMBER_LABEL": "K61186",
        "INCIDENT_FIRE_YEAR": 2026,
        "FIRE_STATUS": "Out of Control",
        "FIRE_SIZE_HECTARES": null,
        "TRACK_DATE": null,
        "FIRE_URL": "https://wildfiresituation.nrs.gov.bc.ca/incidents?fireYear=2026&incidentNumber=K61186",
        "DATA_SOURCE": "incident-point"
      }
    },
    {
      "type": "Feature",
      "id": "bcws-incident-N41423",
      "geometry": {
        "bbox": [
          -117.7965,
          51.101383,
          -117.7965,
          51.101383
        ],
        "type": "Point",
        "coordinates": [
          -117.7965,
          51.101383
        ]
      },
      "properties": {
        "FIRE_NUMBER": "N41423",
        "INCIDENT_NAME": "N41423",
        "INCIDENT_NUMBER_LABEL": "N41423",
        "INCIDENT_FIRE_YEAR": 2026,
        "FIRE_STATUS": "Out of Control",
        "FIRE_SIZE_HECTARES": null,
        "TRACK_DATE": null,
        "FIRE_URL": "https://wildfiresituation.nrs.gov.bc.ca/incidents?fireYear=2026&incidentNumber=N41423",
        "DATA_SOURCE": "incident-point"
      }
    },
    {
      "type": "Feature",
      "id": "bcws-incident-VA1674",
      "geometry": {
        "bbox": [
          -126.2577,
          52.795667,
          -126.2577,
          52.795667
        ],
        "type": "Point",
        "coordinates": [
          -126.2577,
          52.795667
        ]
      },
      "properties": {
        "FIRE_NUMBER": "VA1674",
        "INCIDENT_NAME": "VA1674",
        "INCIDENT_NUMBER_LABEL": "VA1674",
        "INCIDENT_FIRE_YEAR": 2026,
        "FIRE_STATUS": "Out of Control",
        "FIRE_SIZE_HECTARES": null,
        "TRACK_DATE": null,
        "FIRE_URL": "https://wildfiresituation.nrs.gov.bc.ca/incidents?fireYear=2026&incidentNumber=VA1674",
        "DATA_SOURCE": "incident-point"
      }
    },
    {
      "type": "Feature",
      "id": "bcws-incident-K71651",
      "geometry": {
        "bbox": [
          -121.78625,
          50.281783,
          -121.78625,
          50.281783
        ],
        "type": "Point",
        "coordinates": [
          -121.78625,
          50.281783
        ]
      },
      "properties": {
        "FIRE_NUMBER": "K71651",
        "INCIDENT_NAME": "K71651",
        "INCIDENT_NUMBER_LABEL": "K71651",
        "INCIDENT_FIRE_YEAR": 2026,
        "FIRE_STATUS": "Out of Control",
        "FIRE_SIZE_HECTARES": null,
        "TRACK_DATE": null,
        "FIRE_URL": "https://wildfiresituation.nrs.gov.bc.ca/incidents?fireYear=2026&incidentNumber=K71651",
        "DATA_SOURCE": "incident-point"
      }
    },
    {
      "type": "Feature",
      "id": "bcws-incident-V91654",
      "geometry": {
        "bbox": [
          -126.386083,
          49.983433,
          -126.386083,
          49.983433
        ],
        "type": "Point",
        "coordinates": [
          -126.386083,
          49.983433
        ]
      },
      "properties": {
        "FIRE_NUMBER": "V91654",
        "INCIDENT_NAME": "V91654",
        "INCIDENT_NUMBER_LABEL": "V91654",
        "INCIDENT_FIRE_YEAR": 2026,
        "FIRE_STATUS": "Out of Control",
        "FIRE_SIZE_HECTARES": null,
        "TRACK_DATE": null,
        "FIRE_URL": "https://wildfiresituation.nrs.gov.bc.ca/incidents?fireYear=2026&incidentNumber=V91654",
        "DATA_SOURCE": "incident-point"
      }
    },
    {
      "type": "Feature",
      "id": "bcws-incident-N61319",
      "geometry": {
        "bbox": [
          -118.154333,
          49.246583,
          -118.154333,
          49.246583
        ],
        "type": "Point",
        "coordinates": [
          -118.154333,
          49.246583
        ]
      },
      "properties": {
        "FIRE_NUMBER": "N61319",
        "INCIDENT_NAME": "N61319",
        "INCIDENT_NUMBER_LABEL": "N61319",
        "INCIDENT_FIRE_YEAR": 2026,
        "FIRE_STATUS": "Out of Control",
        "FIRE_SIZE_HECTARES": null,
        "TRACK_DATE": null,
        "FIRE_URL": "https://wildfiresituation.nrs.gov.bc.ca/incidents?fireYear=2026&incidentNumber=N61319",
        "DATA_SOURCE": "incident-point"
      }
    },
    {
      "type": "Feature",
      "id": "bcws-incident-V81680",
      "geometry": {
        "bbox": [
          -126.01405,
          49.956383,
          -126.01405,
          49.956383
        ],
        "type": "Point",
        "coordinates": [
          -126.01405,
          49.956383
        ]
      },
      "properties": {
        "FIRE_NUMBER": "V81680",
        "INCIDENT_NAME": "V81680",
        "INCIDENT_NUMBER_LABEL": "V81680",
        "INCIDENT_FIRE_YEAR": 2026,
        "FIRE_STATUS": "Out of Control",
        "FIRE_SIZE_HECTARES": null,
        "TRACK_DATE": null,
        "FIRE_URL": "https://wildfiresituation.nrs.gov.bc.ca/incidents?fireYear=2026&incidentNumber=V81680",
        "DATA_SOURCE": "incident-point"
      }
    },
    {
      "type": "Feature",
      "id": "bcws-incident-V81682",
      "geometry": {
        "bbox": [
          -125.942717,
          49.913533,
          -125.942717,
          49.913533
        ],
        "type": "Point",
        "coordinates": [
          -125.942717,
          49.913533
        ]
      },
      "properties": {
        "FIRE_NUMBER": "V81682",
        "INCIDENT_NAME": "V81682",
        "INCIDENT_NUMBER_LABEL": "V81682",
        "INCIDENT_FIRE_YEAR": 2026,
        "FIRE_STATUS": "Out of Control",
        "FIRE_SIZE_HECTARES": null,
        "TRACK_DATE": null,
        "FIRE_URL": "https://wildfiresituation.nrs.gov.bc.ca/incidents?fireYear=2026&incidentNumber=V81682",
        "DATA_SOURCE": "incident-point"
      }
    },
    {
      "type": "Feature",
      "id": "bcws-incident-N51066",
      "geometry": {
        "bbox": [
          -117.64555,
          50.772383,
          -117.64555,
          50.772383
        ],
        "type": "Point",
        "coordinates": [
          -117.64555,
          50.772383
        ]
      },
      "properties": {
        "FIRE_NUMBER": "N51066",
        "INCIDENT_NAME": "N51066",
        "INCIDENT_NUMBER_LABEL": "N51066",
        "INCIDENT_FIRE_YEAR": 2026,
        "FIRE_STATUS": "Out of Control",
        "FIRE_SIZE_HECTARES": null,
        "TRACK_DATE": null,
        "FIRE_URL": "https://wildfiresituation.nrs.gov.bc.ca/incidents?fireYear=2026&incidentNumber=N51066",
        "DATA_SOURCE": "incident-point"
      }
    },
    {
      "type": "Feature",
      "id": "bcws-incident-N51593",
      "geometry": {
        "bbox": [
          -117.787667,
          50.466717,
          -117.787667,
          50.466717
        ],
        "type": "Point",
        "coordinates": [
          -117.787667,
          50.466717
        ]
      },
      "properties": {
        "FIRE_NUMBER": "N51593",
        "INCIDENT_NAME": "N51593",
        "INCIDENT_NUMBER_LABEL": "N51593",
        "INCIDENT_FIRE_YEAR": 2026,
        "FIRE_STATUS": "Out of Control",
        "FIRE_SIZE_HECTARES": null,
        "TRACK_DATE": null,
        "FIRE_URL": "https://wildfiresituation.nrs.gov.bc.ca/incidents?fireYear=2026&incidentNumber=N51593",
        "DATA_SOURCE": "incident-point"
      }
    },
    {
      "type": "Feature",
      "id": "bcws-incident-V10898",
      "geometry": {
        "bbox": [
          -120.988717,
          49.137133,
          -120.988717,
          49.137133
        ],
        "type": "Point",
        "coordinates": [
          -120.988717,
          49.137133
        ]
      },
      "properties": {
        "FIRE_NUMBER": "V10898",
        "INCIDENT_NAME": "Big Burn Creek",
        "INCIDENT_NUMBER_LABEL": "V10898",
        "INCIDENT_FIRE_YEAR": 2026,
        "FIRE_STATUS": "Out of Control",
        "FIRE_SIZE_HECTARES": null,
        "TRACK_DATE": null,
        "FIRE_URL": "https://wildfiresituation.nrs.gov.bc.ca/incidents?fireYear=2026&incidentNumber=V10898",
        "DATA_SOURCE": "incident-point"
      }
    },
    {
      "type": "Feature",
      "id": "bcws-incident-V10885",
      "geometry": {
        "bbox": [
          -121.020333,
          48.999267,
          -121.020333,
          48.999267
        ],
        "type": "Point",
        "coordinates": [
          -121.020333,
          48.999267
        ]
      },
      "properties": {
        "FIRE_NUMBER": "V10885",
        "INCIDENT_NAME": "Border 2",
        "INCIDENT_NUMBER_LABEL": "V10885",
        "INCIDENT_FIRE_YEAR": 2026,
        "FIRE_STATUS": "Out of Control",
        "FIRE_SIZE_HECTARES": null,
        "TRACK_DATE": null,
        "FIRE_URL": "https://wildfiresituation.nrs.gov.bc.ca/incidents?fireYear=2026&incidentNumber=V10885",
        "DATA_SOURCE": "incident-point"
      }
    },
    {
      "type": "Feature",
      "id": "bcws-incident-K70659",
      "geometry": {
        "bbox": [
          -121.918533,
          50.598567,
          -121.918533,
          50.598567
        ],
        "type": "Point",
        "coordinates": [
          -121.918533,
          50.598567
        ]
      },
      "properties": {
        "FIRE_NUMBER": "K70659",
        "INCIDENT_NAME": "Riley Creek",
        "INCIDENT_NUMBER_LABEL": "K70659",
        "INCIDENT_FIRE_YEAR": 2026,
        "FIRE_STATUS": "Out of Control",
        "FIRE_SIZE_HECTARES": null,
        "TRACK_DATE": null,
        "FIRE_URL": "https://wildfiresituation.nrs.gov.bc.ca/incidents?fireYear=2026&incidentNumber=K70659",
        "DATA_SOURCE": "incident-point"
      }
    },
    {
      "type": "Feature",
      "id": "bcws-incident-N71563",
      "geometry": {
        "bbox": [
          -117.1748,
          50.789117,
          -117.1748,
          50.789117
        ],
        "type": "Point",
        "coordinates": [
          -117.1748,
          50.789117
        ]
      },
      "properties": {
        "FIRE_NUMBER": "N71563",
        "INCIDENT_NAME": "N71563",
        "INCIDENT_NUMBER_LABEL": "N71563",
        "INCIDENT_FIRE_YEAR": 2026,
        "FIRE_STATUS": "Out of Control",
        "FIRE_SIZE_HECTARES": null,
        "TRACK_DATE": null,
        "FIRE_URL": "https://wildfiresituation.nrs.gov.bc.ca/incidents?fireYear=2026&incidentNumber=N71563",
        "DATA_SOURCE": "incident-point"
      }
    },
    {
      "type": "Feature",
      "id": "bcws-incident-K41355",
      "geometry": {
        "bbox": [
          -118.303933,
          50.560183,
          -118.303933,
          50.560183
        ],
        "type": "Point",
        "coordinates": [
          -118.303933,
          50.560183
        ]
      },
      "properties": {
        "FIRE_NUMBER": "K41355",
        "INCIDENT_NAME": "K41355",
        "INCIDENT_NUMBER_LABEL": "K41355",
        "INCIDENT_FIRE_YEAR": 2026,
        "FIRE_STATUS": "Out of Control",
        "FIRE_SIZE_HECTARES": null,
        "TRACK_DATE": null,
        "FIRE_URL": "https://wildfiresituation.nrs.gov.bc.ca/incidents?fireYear=2026&incidentNumber=K41355",
        "DATA_SOURCE": "incident-point"
      }
    },
    {
      "type": "Feature",
      "id": "bcws-incident-V10958",
      "geometry": {
        "bbox": [
          -120.915867,
          49.122567,
          -120.915867,
          49.122567
        ],
        "type": "Point",
        "coordinates": [
          -120.915867,
          49.122567
        ]
      },
      "properties": {
        "FIRE_NUMBER": "V10958",
        "INCIDENT_NAME": "Daynar Creek",
        "INCIDENT_NUMBER_LABEL": "V10958",
        "INCIDENT_FIRE_YEAR": 2026,
        "FIRE_STATUS": "Out of Control",
        "FIRE_SIZE_HECTARES": null,
        "TRACK_DATE": null,
        "FIRE_URL": "https://wildfiresituation.nrs.gov.bc.ca/incidents?fireYear=2026&incidentNumber=V10958",
        "DATA_SOURCE": "incident-point"
      }
    },
    {
      "type": "Feature",
      "id": "bcws-incident-V81694",
      "geometry": {
        "bbox": [
          -126.10995,
          50.129383,
          -126.10995,
          50.129383
        ],
        "type": "Point",
        "coordinates": [
          -126.10995,
          50.129383
        ]
      },
      "properties": {
        "FIRE_NUMBER": "V81694",
        "INCIDENT_NAME": "V81694",
        "INCIDENT_NUMBER_LABEL": "V81694",
        "INCIDENT_FIRE_YEAR": 2026,
        "FIRE_STATUS": "Out of Control",
        "FIRE_SIZE_HECTARES": null,
        "TRACK_DATE": null,
        "FIRE_URL": "https://wildfiresituation.nrs.gov.bc.ca/incidents?fireYear=2026&incidentNumber=V81694",
        "DATA_SOURCE": "incident-point"
      }
    },
    {
      "type": "Feature",
      "id": "bcws-incident-K71082",
      "geometry": {
        "bbox": [
          -122.857583,
          51.0397,
          -122.857583,
          51.0397
        ],
        "type": "Point",
        "coordinates": [
          -122.857583,
          51.0397
        ]
      },
      "properties": {
        "FIRE_NUMBER": "K71082",
        "INCIDENT_NAME": "Bonanza Creek",
        "INCIDENT_NUMBER_LABEL": "K71082",
        "INCIDENT_FIRE_YEAR": 2026,
        "FIRE_STATUS": "Out of Control",
        "FIRE_SIZE_HECTARES": null,
        "TRACK_DATE": null,
        "FIRE_URL": "https://wildfiresituation.nrs.gov.bc.ca/incidents?fireYear=2026&incidentNumber=K71082",
        "DATA_SOURCE": "incident-point"
      }
    },
    {
      "type": "Feature",
      "id": "bcws-incident-N41514",
      "geometry": {
        "bbox": [
          -116.347883,
          51.113467,
          -116.347883,
          51.113467
        ],
        "type": "Point",
        "coordinates": [
          -116.347883,
          51.113467
        ]
      },
      "properties": {
        "FIRE_NUMBER": "N41514",
        "INCIDENT_NAME": "N41514",
        "INCIDENT_NUMBER_LABEL": "N41514",
        "INCIDENT_FIRE_YEAR": 2026,
        "FIRE_STATUS": "Out of Control",
        "FIRE_SIZE_HECTARES": null,
        "TRACK_DATE": null,
        "FIRE_URL": "https://wildfiresituation.nrs.gov.bc.ca/incidents?fireYear=2026&incidentNumber=N41514",
        "DATA_SOURCE": "incident-point"
      }
    },
    {
      "type": "Feature",
      "id": "bcws-incident-N41279",
      "geometry": {
        "bbox": [
          -118.271467,
          51.59555,
          -118.271467,
          51.59555
        ],
        "type": "Point",
        "coordinates": [
          -118.271467,
          51.59555
        ]
      },
      "properties": {
        "FIRE_NUMBER": "N41279",
        "INCIDENT_NAME": "N41279",
        "INCIDENT_NUMBER_LABEL": "N41279",
        "INCIDENT_FIRE_YEAR": 2026,
        "FIRE_STATUS": "Out of Control",
        "FIRE_SIZE_HECTARES": null,
        "TRACK_DATE": null,
        "FIRE_URL": "https://wildfiresituation.nrs.gov.bc.ca/incidents?fireYear=2026&incidentNumber=N41279",
        "DATA_SOURCE": "incident-point"
      }
    },
    {
      "type": "Feature",
      "id": "bcws-incident-N71254",
      "geometry": {
        "bbox": [
          -117.190167,
          50.498433,
          -117.190167,
          50.498433
        ],
        "type": "Point",
        "coordinates": [
          -117.190167,
          50.498433
        ]
      },
      "properties": {
        "FIRE_NUMBER": "N71254",
        "INCIDENT_NAME": "N71254",
        "INCIDENT_NUMBER_LABEL": "N71254",
        "INCIDENT_FIRE_YEAR": 2026,
        "FIRE_STATUS": "Out of Control",
        "FIRE_SIZE_HECTARES": null,
        "TRACK_DATE": null,
        "FIRE_URL": "https://wildfiresituation.nrs.gov.bc.ca/incidents?fireYear=2026&incidentNumber=N71254",
        "DATA_SOURCE": "incident-point"
      }
    },
    {
      "type": "Feature",
      "id": "bcws-incident-N51207",
      "geometry": {
        "bbox": [
          -117.868,
          49.715433,
          -117.868,
          49.715433
        ],
        "type": "Point",
        "coordinates": [
          -117.868,
          49.715433
        ]
      },
      "properties": {
        "FIRE_NUMBER": "N51207",
        "INCIDENT_NAME": "N51207",
        "INCIDENT_NUMBER_LABEL": "N51207",
        "INCIDENT_FIRE_YEAR": 2026,
        "FIRE_STATUS": "Out of Control",
        "FIRE_SIZE_HECTARES": null,
        "TRACK_DATE": null,
        "FIRE_URL": "https://wildfiresituation.nrs.gov.bc.ca/incidents?fireYear=2026&incidentNumber=N51207",
        "DATA_SOURCE": "incident-point"
      }
    },
    {
      "type": "Feature",
      "id": "bcws-incident-V91619",
      "geometry": {
        "bbox": [
          -126.78395,
          50.359817,
          -126.78395,
          50.359817
        ],
        "type": "Point",
        "coordinates": [
          -126.78395,
          50.359817
        ]
      },
      "properties": {
        "FIRE_NUMBER": "V91619",
        "INCIDENT_NAME": "Misery Creek",
        "INCIDENT_NUMBER_LABEL": "V91619",
        "INCIDENT_FIRE_YEAR": 2026,
        "FIRE_STATUS": "Out of Control",
        "FIRE_SIZE_HECTARES": null,
        "TRACK_DATE": null,
        "FIRE_URL": "https://wildfiresituation.nrs.gov.bc.ca/incidents?fireYear=2026&incidentNumber=V91619",
        "DATA_SOURCE": "incident-point"
      }
    },
    {
      "type": "Feature",
      "id": "bcws-incident-V81686",
      "geometry": {
        "bbox": [
          -125.764,
          49.951367,
          -125.764,
          49.951367
        ],
        "type": "Point",
        "coordinates": [
          -125.764,
          49.951367
        ]
      },
      "properties": {
        "FIRE_NUMBER": "V81686",
        "INCIDENT_NAME": "V81686",
        "INCIDENT_NUMBER_LABEL": "V81686",
        "INCIDENT_FIRE_YEAR": 2026,
        "FIRE_STATUS": "Out of Control",
        "FIRE_SIZE_HECTARES": null,
        "TRACK_DATE": null,
        "FIRE_URL": "https://wildfiresituation.nrs.gov.bc.ca/incidents?fireYear=2026&incidentNumber=V81686",
        "DATA_SOURCE": "incident-point"
      }
    },
    {
      "type": "Feature",
      "id": "bcws-incident-N71327",
      "geometry": {
        "bbox": [
          -117.444367,
          50.549533,
          -117.444367,
          50.549533
        ],
        "type": "Point",
        "coordinates": [
          -117.444367,
          50.549533
        ]
      },
      "properties": {
        "FIRE_NUMBER": "N71327",
        "INCIDENT_NAME": "N71327",
        "INCIDENT_NUMBER_LABEL": "N71327",
        "INCIDENT_FIRE_YEAR": 2026,
        "FIRE_STATUS": "Out of Control",
        "FIRE_SIZE_HECTARES": null,
        "TRACK_DATE": null,
        "FIRE_URL": "https://wildfiresituation.nrs.gov.bc.ca/incidents?fireYear=2026&incidentNumber=N71327",
        "DATA_SOURCE": "incident-point"
      }
    },
    {
      "type": "Feature",
      "id": "bcws-incident-V30941",
      "geometry": {
        "bbox": [
          -122.436917,
          50.25345,
          -122.436917,
          50.25345
        ],
        "type": "Point",
        "coordinates": [
          -122.436917,
          50.25345
        ]
      },
      "properties": {
        "FIRE_NUMBER": "V30941",
        "INCIDENT_NAME": "Twin Two Creek",
        "INCIDENT_NUMBER_LABEL": "V30941",
        "INCIDENT_FIRE_YEAR": 2026,
        "FIRE_STATUS": "Out of Control",
        "FIRE_SIZE_HECTARES": null,
        "TRACK_DATE": null,
        "FIRE_URL": "https://wildfiresituation.nrs.gov.bc.ca/incidents?fireYear=2026&incidentNumber=V30941",
        "DATA_SOURCE": "incident-point"
      }
    },
    {
      "type": "Feature",
      "id": "bcws-incident-K21312",
      "geometry": {
        "bbox": [
          -119.715783,
          51.38635,
          -119.715783,
          51.38635
        ],
        "type": "Point",
        "coordinates": [
          -119.715783,
          51.38635
        ]
      },
      "properties": {
        "FIRE_NUMBER": "K21312",
        "INCIDENT_NAME": "K21312",
        "INCIDENT_NUMBER_LABEL": "K21312",
        "INCIDENT_FIRE_YEAR": 2026,
        "FIRE_STATUS": "Out of Control",
        "FIRE_SIZE_HECTARES": null,
        "TRACK_DATE": null,
        "FIRE_URL": "https://wildfiresituation.nrs.gov.bc.ca/incidents?fireYear=2026&incidentNumber=K21312",
        "DATA_SOURCE": "incident-point"
      }
    },
    {
      "type": "Feature",
      "id": "bcws-incident-V91689",
      "geometry": {
        "bbox": [
          -126.480717,
          50.034867,
          -126.480717,
          50.034867
        ],
        "type": "Point",
        "coordinates": [
          -126.480717,
          50.034867
        ]
      },
      "properties": {
        "FIRE_NUMBER": "V91689",
        "INCIDENT_NAME": "V91689",
        "INCIDENT_NUMBER_LABEL": "V91689",
        "INCIDENT_FIRE_YEAR": 2026,
        "FIRE_STATUS": "Out of Control",
        "FIRE_SIZE_HECTARES": null,
        "TRACK_DATE": null,
        "FIRE_URL": "https://wildfiresituation.nrs.gov.bc.ca/incidents?fireYear=2026&incidentNumber=V91689",
        "DATA_SOURCE": "incident-point"
      }
    },
    {
      "type": "Feature",
      "id": "bcws-incident-K71668",
      "geometry": {
        "bbox": [
          -121.863333,
          50.103467,
          -121.863333,
          50.103467
        ],
        "type": "Point",
        "coordinates": [
          -121.863333,
          50.103467
        ]
      },
      "properties": {
        "FIRE_NUMBER": "K71668",
        "INCIDENT_NAME": "K71668",
        "INCIDENT_NUMBER_LABEL": "K71668",
        "INCIDENT_FIRE_YEAR": 2026,
        "FIRE_STATUS": "Out of Control",
        "FIRE_SIZE_HECTARES": null,
        "TRACK_DATE": null,
        "FIRE_URL": "https://wildfiresituation.nrs.gov.bc.ca/incidents?fireYear=2026&incidentNumber=K71668",
        "DATA_SOURCE": "incident-point"
      }
    },
    {
      "type": "Feature",
      "id": "bcws-incident-C50929",
      "geometry": {
        "bbox": [
          -125.375367,
          52.68845,
          -125.375367,
          52.68845
        ],
        "type": "Point",
        "coordinates": [
          -125.375367,
          52.68845
        ]
      },
      "properties": {
        "FIRE_NUMBER": "C50929",
        "INCIDENT_NAME": "Lessard Lake",
        "INCIDENT_NUMBER_LABEL": "C50929",
        "INCIDENT_FIRE_YEAR": 2026,
        "FIRE_STATUS": "Out of Control",
        "FIRE_SIZE_HECTARES": null,
        "TRACK_DATE": null,
        "FIRE_URL": "https://wildfiresituation.nrs.gov.bc.ca/incidents?fireYear=2026&incidentNumber=C50929",
        "DATA_SOURCE": "incident-point"
      }
    },
    {
      "type": "Feature",
      "id": "bcws-incident-K21688",
      "geometry": {
        "bbox": [
          -119.107,
          52.069367,
          -119.107,
          52.069367
        ],
        "type": "Point",
        "coordinates": [
          -119.107,
          52.069367
        ]
      },
      "properties": {
        "FIRE_NUMBER": "K21688",
        "INCIDENT_NAME": "K21688",
        "INCIDENT_NUMBER_LABEL": "K21688",
        "INCIDENT_FIRE_YEAR": 2026,
        "FIRE_STATUS": "Out of Control",
        "FIRE_SIZE_HECTARES": null,
        "TRACK_DATE": null,
        "FIRE_URL": "https://wildfiresituation.nrs.gov.bc.ca/incidents?fireYear=2026&incidentNumber=K21688",
        "DATA_SOURCE": "incident-point"
      }
    },
    {
      "type": "Feature",
      "id": "bcws-incident-K70748",
      "geometry": {
        "bbox": [
          -122.207167,
          51.251333,
          -122.207167,
          51.251333
        ],
        "type": "Point",
        "coordinates": [
          -122.207167,
          51.251333
        ]
      },
      "properties": {
        "FIRE_NUMBER": "K70748",
        "INCIDENT_NAME": "French Bar Creek",
        "INCIDENT_NUMBER_LABEL": "K70748",
        "INCIDENT_FIRE_YEAR": 2026,
        "FIRE_STATUS": "Out of Control",
        "FIRE_SIZE_HECTARES": null,
        "TRACK_DATE": null,
        "FIRE_URL": "https://wildfiresituation.nrs.gov.bc.ca/incidents?fireYear=2026&incidentNumber=K70748",
        "DATA_SOURCE": "incident-point"
      }
    },
    {
      "type": "Feature",
      "id": "bcws-incident-V81696",
      "geometry": {
        "bbox": [
          -125.802783,
          49.701583,
          -125.802783,
          49.701583
        ],
        "type": "Point",
        "coordinates": [
          -125.802783,
          49.701583
        ]
      },
      "properties": {
        "FIRE_NUMBER": "V81696",
        "INCIDENT_NAME": "V81696",
        "INCIDENT_NUMBER_LABEL": "V81696",
        "INCIDENT_FIRE_YEAR": 2026,
        "FIRE_STATUS": "Out of Control",
        "FIRE_SIZE_HECTARES": null,
        "TRACK_DATE": null,
        "FIRE_URL": "https://wildfiresituation.nrs.gov.bc.ca/incidents?fireYear=2026&incidentNumber=V81696",
        "DATA_SOURCE": "incident-point"
      }
    },
    {
      "type": "Feature",
      "id": "bcws-incident-N41697",
      "geometry": {
        "bbox": [
          -118.565633,
          51.547617,
          -118.565633,
          51.547617
        ],
        "type": "Point",
        "coordinates": [
          -118.565633,
          51.547617
        ]
      },
      "properties": {
        "FIRE_NUMBER": "N41697",
        "INCIDENT_NAME": "N41697",
        "INCIDENT_NUMBER_LABEL": "N41697",
        "INCIDENT_FIRE_YEAR": 2026,
        "FIRE_STATUS": "Out of Control",
        "FIRE_SIZE_HECTARES": null,
        "TRACK_DATE": null,
        "FIRE_URL": "https://wildfiresituation.nrs.gov.bc.ca/incidents?fireYear=2026&incidentNumber=N41697",
        "DATA_SOURCE": "incident-point"
      }
    },
    {
      "type": "Feature",
      "id": "bcws-incident-N21071",
      "geometry": {
        "bbox": [
          -116.519517,
          50.367183,
          -116.519517,
          50.367183
        ],
        "type": "Point",
        "coordinates": [
          -116.519517,
          50.367183
        ]
      },
      "properties": {
        "FIRE_NUMBER": "N21071",
        "INCIDENT_NAME": "Jumbo Creek",
        "INCIDENT_NUMBER_LABEL": "N21071",
        "INCIDENT_FIRE_YEAR": 2026,
        "FIRE_STATUS": "Out of Control",
        "FIRE_SIZE_HECTARES": null,
        "TRACK_DATE": null,
        "FIRE_URL": "https://wildfiresituation.nrs.gov.bc.ca/incidents?fireYear=2026&incidentNumber=N21071",
        "DATA_SOURCE": "incident-point"
      }
    },
    {
      "type": "Feature",
      "id": "bcws-incident-N41412",
      "geometry": {
        "bbox": [
          -116.861,
          51.548367,
          -116.861,
          51.548367
        ],
        "type": "Point",
        "coordinates": [
          -116.861,
          51.548367
        ]
      },
      "properties": {
        "FIRE_NUMBER": "N41412",
        "INCIDENT_NAME": "Sea Lion Mountain",
        "INCIDENT_NUMBER_LABEL": "N41412",
        "INCIDENT_FIRE_YEAR": 2026,
        "FIRE_STATUS": "Out of Control",
        "FIRE_SIZE_HECTARES": null,
        "TRACK_DATE": null,
        "FIRE_URL": "https://wildfiresituation.nrs.gov.bc.ca/incidents?fireYear=2026&incidentNumber=N41412",
        "DATA_SOURCE": "incident-point"
      }
    },
    {
      "type": "Feature",
      "id": "bcws-incident-V11058",
      "geometry": {
        "bbox": [
          -120.968783,
          49.121317,
          -120.968783,
          49.121317
        ],
        "type": "Point",
        "coordinates": [
          -120.968783,
          49.121317
        ]
      },
      "properties": {
        "FIRE_NUMBER": "V11058",
        "INCIDENT_NAME": "V11058",
        "INCIDENT_NUMBER_LABEL": "V11058",
        "INCIDENT_FIRE_YEAR": 2026,
        "FIRE_STATUS": "Out of Control",
        "FIRE_SIZE_HECTARES": null,
        "TRACK_DATE": null,
        "FIRE_URL": "https://wildfiresituation.nrs.gov.bc.ca/incidents?fireYear=2026&incidentNumber=V11058",
        "DATA_SOURCE": "incident-point"
      }
    },
    {
      "type": "Feature",
      "id": "bcws-incident-V10858",
      "geometry": {
        "bbox": [
          -121.242617,
          49.485583,
          -121.242617,
          49.485583
        ],
        "type": "Point",
        "coordinates": [
          -121.242617,
          49.485583
        ]
      },
      "properties": {
        "FIRE_NUMBER": "V10858",
        "INCIDENT_NAME": "Dewdney Creek",
        "INCIDENT_NUMBER_LABEL": "V10858",
        "INCIDENT_FIRE_YEAR": 2026,
        "FIRE_STATUS": "Being Held",
        "FIRE_SIZE_HECTARES": null,
        "TRACK_DATE": null,
        "FIRE_URL": "https://wildfiresituation.nrs.gov.bc.ca/incidents?fireYear=2026&incidentNumber=V10858",
        "DATA_SOURCE": "incident-point"
      }
    },
    {
      "type": "Feature",
      "id": "bcws-incident-N71251",
      "geometry": {
        "bbox": [
          -117.170117,
          49.682967,
          -117.170117,
          49.682967
        ],
        "type": "Point",
        "coordinates": [
          -117.170117,
          49.682967
        ]
      },
      "properties": {
        "FIRE_NUMBER": "N71251",
        "INCIDENT_NAME": "N71251",
        "INCIDENT_NUMBER_LABEL": "N71251",
        "INCIDENT_FIRE_YEAR": 2026,
        "FIRE_STATUS": "Being Held",
        "FIRE_SIZE_HECTARES": null,
        "TRACK_DATE": null,
        "FIRE_URL": "https://wildfiresituation.nrs.gov.bc.ca/incidents?fireYear=2026&incidentNumber=N71251",
        "DATA_SOURCE": "incident-point"
      }
    },
    {
      "type": "Feature",
      "id": "bcws-incident-V81661",
      "geometry": {
        "bbox": [
          -126.1583,
          50.039383,
          -126.1583,
          50.039383
        ],
        "type": "Point",
        "coordinates": [
          -126.1583,
          50.039383
        ]
      },
      "properties": {
        "FIRE_NUMBER": "V81661",
        "INCIDENT_NAME": "V81661",
        "INCIDENT_NUMBER_LABEL": "V81661",
        "INCIDENT_FIRE_YEAR": 2026,
        "FIRE_STATUS": "Being Held",
        "FIRE_SIZE_HECTARES": null,
        "TRACK_DATE": null,
        "FIRE_URL": "https://wildfiresituation.nrs.gov.bc.ca/incidents?fireYear=2026&incidentNumber=V81661",
        "DATA_SOURCE": "incident-point"
      }
    },
    {
      "type": "Feature",
      "id": "bcws-incident-V81605",
      "geometry": {
        "bbox": [
          -126.150383,
          49.94395,
          -126.150383,
          49.94395
        ],
        "type": "Point",
        "coordinates": [
          -126.150383,
          49.94395
        ]
      },
      "properties": {
        "FIRE_NUMBER": "V81605",
        "INCIDENT_NAME": "V81605",
        "INCIDENT_NUMBER_LABEL": "V81605",
        "INCIDENT_FIRE_YEAR": 2026,
        "FIRE_STATUS": "Being Held",
        "FIRE_SIZE_HECTARES": null,
        "TRACK_DATE": null,
        "FIRE_URL": "https://wildfiresituation.nrs.gov.bc.ca/incidents?fireYear=2026&incidentNumber=V81605",
        "DATA_SOURCE": "incident-point"
      }
    },
    {
      "type": "Feature",
      "id": "bcws-incident-V81131",
      "geometry": {
        "bbox": [
          -126.199417,
          50.0455,
          -126.199417,
          50.0455
        ],
        "type": "Point",
        "coordinates": [
          -126.199417,
          50.0455
        ]
      },
      "properties": {
        "FIRE_NUMBER": "V81131",
        "INCIDENT_NAME": "V81131",
        "INCIDENT_NUMBER_LABEL": "V81131",
        "INCIDENT_FIRE_YEAR": 2026,
        "FIRE_STATUS": "Being Held",
        "FIRE_SIZE_HECTARES": null,
        "TRACK_DATE": null,
        "FIRE_URL": "https://wildfiresituation.nrs.gov.bc.ca/incidents?fireYear=2026&incidentNumber=V81131",
        "DATA_SOURCE": "incident-point"
      }
    },
    {
      "type": "Feature",
      "id": "bcws-incident-V81606",
      "geometry": {
        "bbox": [
          -126.029383,
          49.864717,
          -126.029383,
          49.864717
        ],
        "type": "Point",
        "coordinates": [
          -126.029383,
          49.864717
        ]
      },
      "properties": {
        "FIRE_NUMBER": "V81606",
        "INCIDENT_NAME": "V81606",
        "INCIDENT_NUMBER_LABEL": "V81606",
        "INCIDENT_FIRE_YEAR": 2026,
        "FIRE_STATUS": "Being Held",
        "FIRE_SIZE_HECTARES": null,
        "TRACK_DATE": null,
        "FIRE_URL": "https://wildfiresituation.nrs.gov.bc.ca/incidents?fireYear=2026&incidentNumber=V81606",
        "DATA_SOURCE": "incident-point"
      }
    },
    {
      "type": "Feature",
      "id": "bcws-incident-N51198",
      "geometry": {
        "bbox": [
          -118.287617,
          49.976983,
          -118.287617,
          49.976983
        ],
        "type": "Point",
        "coordinates": [
          -118.287617,
          49.976983
        ]
      },
      "properties": {
        "FIRE_NUMBER": "N51198",
        "INCIDENT_NAME": "Inonoaklin Creek",
        "INCIDENT_NUMBER_LABEL": "N51198",
        "INCIDENT_FIRE_YEAR": 2026,
        "FIRE_STATUS": "Being Held",
        "FIRE_SIZE_HECTARES": null,
        "TRACK_DATE": null,
        "FIRE_URL": "https://wildfiresituation.nrs.gov.bc.ca/incidents?fireYear=2026&incidentNumber=N51198",
        "DATA_SOURCE": "incident-point"
      }
    },
    {
      "type": "Feature",
      "id": "bcws-incident-N51257",
      "geometry": {
        "bbox": [
          -117.951217,
          49.846667,
          -117.951217,
          49.846667
        ],
        "type": "Point",
        "coordinates": [
          -117.951217,
          49.846667
        ]
      },
      "properties": {
        "FIRE_NUMBER": "N51257",
        "INCIDENT_NAME": "N51257",
        "INCIDENT_NUMBER_LABEL": "N51257",
        "INCIDENT_FIRE_YEAR": 2026,
        "FIRE_STATUS": "Being Held",
        "FIRE_SIZE_HECTARES": null,
        "TRACK_DATE": null,
        "FIRE_URL": "https://wildfiresituation.nrs.gov.bc.ca/incidents?fireYear=2026&incidentNumber=N51257",
        "DATA_SOURCE": "incident-point"
      }
    },
    {
      "type": "Feature",
      "id": "bcws-incident-VA1126",
      "geometry": {
        "bbox": [
          -126.815117,
          52.119917,
          -126.815117,
          52.119917
        ],
        "type": "Point",
        "coordinates": [
          -126.815117,
          52.119917
        ]
      },
      "properties": {
        "FIRE_NUMBER": "VA1126",
        "INCIDENT_NAME": "VA1126",
        "INCIDENT_NUMBER_LABEL": "VA1126",
        "INCIDENT_FIRE_YEAR": 2026,
        "FIRE_STATUS": "Being Held",
        "FIRE_SIZE_HECTARES": null,
        "TRACK_DATE": null,
        "FIRE_URL": "https://wildfiresituation.nrs.gov.bc.ca/incidents?fireYear=2026&incidentNumber=VA1126",
        "DATA_SOURCE": "incident-point"
      }
    },
    {
      "type": "Feature",
      "id": "bcws-incident-V30933",
      "geometry": {
        "bbox": [
          -122.645183,
          49.920533,
          -122.645183,
          49.920533
        ],
        "type": "Point",
        "coordinates": [
          -122.645183,
          49.920533
        ]
      },
      "properties": {
        "FIRE_NUMBER": "V30933",
        "INCIDENT_NAME": "Tuwasus Creek",
        "INCIDENT_NUMBER_LABEL": "V30933",
        "INCIDENT_FIRE_YEAR": 2026,
        "FIRE_STATUS": "Being Held",
        "FIRE_SIZE_HECTARES": null,
        "TRACK_DATE": null,
        "FIRE_URL": "https://wildfiresituation.nrs.gov.bc.ca/incidents?fireYear=2026&incidentNumber=V30933",
        "DATA_SOURCE": "incident-point"
      }
    },
    {
      "type": "Feature",
      "id": "bcws-incident-N51275",
      "geometry": {
        "bbox": [
          -117.759217,
          49.924917,
          -117.759217,
          49.924917
        ],
        "type": "Point",
        "coordinates": [
          -117.759217,
          49.924917
        ]
      },
      "properties": {
        "FIRE_NUMBER": "N51275",
        "INCIDENT_NAME": "N51275",
        "INCIDENT_NUMBER_LABEL": "N51275",
        "INCIDENT_FIRE_YEAR": 2026,
        "FIRE_STATUS": "Being Held",
        "FIRE_SIZE_HECTARES": null,
        "TRACK_DATE": null,
        "FIRE_URL": "https://wildfiresituation.nrs.gov.bc.ca/incidents?fireYear=2026&incidentNumber=N51275",
        "DATA_SOURCE": "incident-point"
      }
    },
    {
      "type": "Feature",
      "id": "bcws-incident-N51284",
      "geometry": {
        "bbox": [
          -117.705367,
          49.857383,
          -117.705367,
          49.857383
        ],
        "type": "Point",
        "coordinates": [
          -117.705367,
          49.857383
        ]
      },
      "properties": {
        "FIRE_NUMBER": "N51284",
        "INCIDENT_NAME": "N51284",
        "INCIDENT_NUMBER_LABEL": "N51284",
        "INCIDENT_FIRE_YEAR": 2026,
        "FIRE_STATUS": "Being Held",
        "FIRE_SIZE_HECTARES": null,
        "TRACK_DATE": null,
        "FIRE_URL": "https://wildfiresituation.nrs.gov.bc.ca/incidents?fireYear=2026&incidentNumber=N51284",
        "DATA_SOURCE": "incident-point"
      }
    },
    {
      "type": "Feature",
      "id": "bcws-incident-N51643",
      "geometry": {
        "bbox": [
          -117.4222,
          49.2325,
          -117.4222,
          49.2325
        ],
        "type": "Point",
        "coordinates": [
          -117.4222,
          49.2325
        ]
      },
      "properties": {
        "FIRE_NUMBER": "N51643",
        "INCIDENT_NAME": "N51643",
        "INCIDENT_NUMBER_LABEL": "N51643",
        "INCIDENT_FIRE_YEAR": 2026,
        "FIRE_STATUS": "Being Held",
        "FIRE_SIZE_HECTARES": null,
        "TRACK_DATE": null,
        "FIRE_URL": "https://wildfiresituation.nrs.gov.bc.ca/incidents?fireYear=2026&incidentNumber=N51643",
        "DATA_SOURCE": "incident-point"
      }
    },
    {
      "type": "Feature",
      "id": "bcws-incident-N41250",
      "geometry": {
        "bbox": [
          -118.167667,
          51.729,
          -118.167667,
          51.729
        ],
        "type": "Point",
        "coordinates": [
          -118.167667,
          51.729
        ]
      },
      "properties": {
        "FIRE_NUMBER": "N41250",
        "INCIDENT_NAME": "N41250",
        "INCIDENT_NUMBER_LABEL": "N41250",
        "INCIDENT_FIRE_YEAR": 2026,
        "FIRE_STATUS": "Being Held",
        "FIRE_SIZE_HECTARES": null,
        "TRACK_DATE": null,
        "FIRE_URL": "https://wildfiresituation.nrs.gov.bc.ca/incidents?fireYear=2026&incidentNumber=N41250",
        "DATA_SOURCE": "incident-point"
      }
    },
    {
      "type": "Feature",
      "id": "bcws-incident-N41348",
      "geometry": {
        "bbox": [
          -118.09045,
          51.69045,
          -118.09045,
          51.69045
        ],
        "type": "Point",
        "coordinates": [
          -118.09045,
          51.69045
        ]
      },
      "properties": {
        "FIRE_NUMBER": "N41348",
        "INCIDENT_NAME": "N41348",
        "INCIDENT_NUMBER_LABEL": "N41348",
        "INCIDENT_FIRE_YEAR": 2026,
        "FIRE_STATUS": "Being Held",
        "FIRE_SIZE_HECTARES": null,
        "TRACK_DATE": null,
        "FIRE_URL": "https://wildfiresituation.nrs.gov.bc.ca/incidents?fireYear=2026&incidentNumber=N41348",
        "DATA_SOURCE": "incident-point"
      }
    },
    {
      "type": "Feature",
      "id": "bcws-incident-C31543",
      "geometry": {
        "bbox": [
          -121.019983,
          52.648879,
          -121.019983,
          52.648879
        ],
        "type": "Point",
        "coordinates": [
          -121.019983,
          52.648879
        ]
      },
      "properties": {
        "FIRE_NUMBER": "C31543",
        "INCIDENT_NAME": "C31543",
        "INCIDENT_NUMBER_LABEL": "C31543",
        "INCIDENT_FIRE_YEAR": 2026,
        "FIRE_STATUS": "Being Held",
        "FIRE_SIZE_HECTARES": null,
        "TRACK_DATE": null,
        "FIRE_URL": "https://wildfiresituation.nrs.gov.bc.ca/incidents?fireYear=2026&incidentNumber=C31543",
        "DATA_SOURCE": "incident-point"
      }
    },
    {
      "type": "Feature",
      "id": "bcws-incident-N11020",
      "geometry": {
        "bbox": [
          -116.22795,
          49.71475,
          -116.22795,
          49.71475
        ],
        "type": "Point",
        "coordinates": [
          -116.22795,
          49.71475
        ]
      },
      "properties": {
        "FIRE_NUMBER": "N11020",
        "INCIDENT_NAME": "Matthew Creek",
        "INCIDENT_NUMBER_LABEL": "N11020",
        "INCIDENT_FIRE_YEAR": 2026,
        "FIRE_STATUS": "Being Held",
        "FIRE_SIZE_HECTARES": null,
        "TRACK_DATE": null,
        "FIRE_URL": "https://wildfiresituation.nrs.gov.bc.ca/incidents?fireYear=2026&incidentNumber=N11020",
        "DATA_SOURCE": "incident-point"
      }
    },
    {
      "type": "Feature",
      "id": "bcws-incident-N11036",
      "geometry": {
        "bbox": [
          -116.4947,
          49.832633,
          -116.4947,
          49.832633
        ],
        "type": "Point",
        "coordinates": [
          -116.4947,
          49.832633
        ]
      },
      "properties": {
        "FIRE_NUMBER": "N11036",
        "INCIDENT_NAME": "Calamity Creek ",
        "INCIDENT_NUMBER_LABEL": "N11036",
        "INCIDENT_FIRE_YEAR": 2026,
        "FIRE_STATUS": "Being Held",
        "FIRE_SIZE_HECTARES": null,
        "TRACK_DATE": null,
        "FIRE_URL": "https://wildfiresituation.nrs.gov.bc.ca/incidents?fireYear=2026&incidentNumber=N11036",
        "DATA_SOURCE": "incident-point"
      }
    },
    {
      "type": "Feature",
      "id": "bcws-incident-N10947",
      "geometry": {
        "bbox": [
          -116.375117,
          49.602167,
          -116.375117,
          49.602167
        ],
        "type": "Point",
        "coordinates": [
          -116.375117,
          49.602167
        ]
      },
      "properties": {
        "FIRE_NUMBER": "N10947",
        "INCIDENT_NAME": "Tower Creek ",
        "INCIDENT_NUMBER_LABEL": "N10947",
        "INCIDENT_FIRE_YEAR": 2026,
        "FIRE_STATUS": "Being Held",
        "FIRE_SIZE_HECTARES": null,
        "TRACK_DATE": null,
        "FIRE_URL": "https://wildfiresituation.nrs.gov.bc.ca/incidents?fireYear=2026&incidentNumber=N10947",
        "DATA_SOURCE": "incident-point"
      }
    },
    {
      "type": "Feature",
      "id": "bcws-incident-G80916",
      "geometry": {
        "bbox": [
          -122.932667,
          57.6855,
          -122.932667,
          57.6855
        ],
        "type": "Point",
        "coordinates": [
          -122.932667,
          57.6855
        ]
      },
      "properties": {
        "FIRE_NUMBER": "G80916",
        "INCIDENT_NAME": "G80916",
        "INCIDENT_NUMBER_LABEL": "G80916",
        "INCIDENT_FIRE_YEAR": 2026,
        "FIRE_STATUS": "Being Held",
        "FIRE_SIZE_HECTARES": null,
        "TRACK_DATE": null,
        "FIRE_URL": "https://wildfiresituation.nrs.gov.bc.ca/incidents?fireYear=2026&incidentNumber=G80916",
        "DATA_SOURCE": "incident-point"
      }
    },
    {
      "type": "Feature",
      "id": "bcws-incident-C31692",
      "geometry": {
        "bbox": [
          -121.559417,
          52.5678,
          -121.559417,
          52.5678
        ],
        "type": "Point",
        "coordinates": [
          -121.559417,
          52.5678
        ]
      },
      "properties": {
        "FIRE_NUMBER": "C31692",
        "INCIDENT_NAME": "C31692",
        "INCIDENT_NUMBER_LABEL": "C31692",
        "INCIDENT_FIRE_YEAR": 2026,
        "FIRE_STATUS": "Being Held",
        "FIRE_SIZE_HECTARES": null,
        "TRACK_DATE": null,
        "FIRE_URL": "https://wildfiresituation.nrs.gov.bc.ca/incidents?fireYear=2026&incidentNumber=C31692",
        "DATA_SOURCE": "incident-point"
      }
    },
    {
      "type": "Feature",
      "id": "bcws-incident-N71332",
      "geometry": {
        "bbox": [
          -116.7308,
          50.250117,
          -116.7308,
          50.250117
        ],
        "type": "Point",
        "coordinates": [
          -116.7308,
          50.250117
        ]
      },
      "properties": {
        "FIRE_NUMBER": "N71332",
        "INCIDENT_NAME": "N71332",
        "INCIDENT_NUMBER_LABEL": "N71332",
        "INCIDENT_FIRE_YEAR": 2026,
        "FIRE_STATUS": "Being Held",
        "FIRE_SIZE_HECTARES": null,
        "TRACK_DATE": null,
        "FIRE_URL": "https://wildfiresituation.nrs.gov.bc.ca/incidents?fireYear=2026&incidentNumber=N71332",
        "DATA_SOURCE": "incident-point"
      }
    },
    {
      "type": "Feature",
      "id": "bcws-incident-N71086",
      "geometry": {
        "bbox": [
          -117.083233,
          50.08405,
          -117.083233,
          50.08405
        ],
        "type": "Point",
        "coordinates": [
          -117.083233,
          50.08405
        ]
      },
      "properties": {
        "FIRE_NUMBER": "N71086",
        "INCIDENT_NAME": "N71086",
        "INCIDENT_NUMBER_LABEL": "N71086",
        "INCIDENT_FIRE_YEAR": 2026,
        "FIRE_STATUS": "Being Held",
        "FIRE_SIZE_HECTARES": null,
        "TRACK_DATE": null,
        "FIRE_URL": "https://wildfiresituation.nrs.gov.bc.ca/incidents?fireYear=2026&incidentNumber=N71086",
        "DATA_SOURCE": "incident-point"
      }
    },
    {
      "type": "Feature",
      "id": "bcws-incident-N71472",
      "geometry": {
        "bbox": [
          -117.2055,
          50.389667,
          -117.2055,
          50.389667
        ],
        "type": "Point",
        "coordinates": [
          -117.2055,
          50.389667
        ]
      },
      "properties": {
        "FIRE_NUMBER": "N71472",
        "INCIDENT_NAME": "N71472",
        "INCIDENT_NUMBER_LABEL": "N71472",
        "INCIDENT_FIRE_YEAR": 2026,
        "FIRE_STATUS": "Being Held",
        "FIRE_SIZE_HECTARES": null,
        "TRACK_DATE": null,
        "FIRE_URL": "https://wildfiresituation.nrs.gov.bc.ca/incidents?fireYear=2026&incidentNumber=N71472",
        "DATA_SOURCE": "incident-point"
      }
    },
    {
      "type": "Feature",
      "id": "bcws-incident-N71253",
      "geometry": {
        "bbox": [
          -117.1432,
          50.392883,
          -117.1432,
          50.392883
        ],
        "type": "Point",
        "coordinates": [
          -117.1432,
          50.392883
        ]
      },
      "properties": {
        "FIRE_NUMBER": "N71253",
        "INCIDENT_NAME": "Poplar Creek",
        "INCIDENT_NUMBER_LABEL": "N71253",
        "INCIDENT_FIRE_YEAR": 2026,
        "FIRE_STATUS": "Being Held",
        "FIRE_SIZE_HECTARES": null,
        "TRACK_DATE": null,
        "FIRE_URL": "https://wildfiresituation.nrs.gov.bc.ca/incidents?fireYear=2026&incidentNumber=N71253",
        "DATA_SOURCE": "incident-point"
      }
    },
    {
      "type": "Feature",
      "id": "bcws-incident-N41081",
      "geometry": {
        "bbox": [
          -118.166,
          50.531133,
          -118.166,
          50.531133
        ],
        "type": "Point",
        "coordinates": [
          -118.166,
          50.531133
        ]
      },
      "properties": {
        "FIRE_NUMBER": "N41081",
        "INCIDENT_NAME": "N41081",
        "INCIDENT_NUMBER_LABEL": "N41081",
        "INCIDENT_FIRE_YEAR": 2026,
        "FIRE_STATUS": "Being Held",
        "FIRE_SIZE_HECTARES": null,
        "TRACK_DATE": null,
        "FIRE_URL": "https://wildfiresituation.nrs.gov.bc.ca/incidents?fireYear=2026&incidentNumber=N41081",
        "DATA_SOURCE": "incident-point"
      }
    },
    {
      "type": "Feature",
      "id": "bcws-incident-N71157",
      "geometry": {
        "bbox": [
          -116.522683,
          49.447717,
          -116.522683,
          49.447717
        ],
        "type": "Point",
        "coordinates": [
          -116.522683,
          49.447717
        ]
      },
      "properties": {
        "FIRE_NUMBER": "N71157",
        "INCIDENT_NAME": "N71157",
        "INCIDENT_NUMBER_LABEL": "N71157",
        "INCIDENT_FIRE_YEAR": 2026,
        "FIRE_STATUS": "Being Held",
        "FIRE_SIZE_HECTARES": null,
        "TRACK_DATE": null,
        "FIRE_URL": "https://wildfiresituation.nrs.gov.bc.ca/incidents?fireYear=2026&incidentNumber=N71157",
        "DATA_SOURCE": "incident-point"
      }
    },
    {
      "type": "Feature",
      "id": "bcws-incident-G31495",
      "geometry": {
        "bbox": [
          -120.402667,
          53.35725,
          -120.402667,
          53.35725
        ],
        "type": "Point",
        "coordinates": [
          -120.402667,
          53.35725
        ]
      },
      "properties": {
        "FIRE_NUMBER": "G31495",
        "INCIDENT_NAME": "G31495",
        "INCIDENT_NUMBER_LABEL": "G31495",
        "INCIDENT_FIRE_YEAR": 2026,
        "FIRE_STATUS": "Being Held",
        "FIRE_SIZE_HECTARES": null,
        "TRACK_DATE": null,
        "FIRE_URL": "https://wildfiresituation.nrs.gov.bc.ca/incidents?fireYear=2026&incidentNumber=G31495",
        "DATA_SOURCE": "incident-point"
      }
    },
    {
      "type": "Feature",
      "id": "bcws-incident-N71328",
      "geometry": {
        "bbox": [
          -117.048933,
          49.304417,
          -117.048933,
          49.304417
        ],
        "type": "Point",
        "coordinates": [
          -117.048933,
          49.304417
        ]
      },
      "properties": {
        "FIRE_NUMBER": "N71328",
        "INCIDENT_NAME": "N71328",
        "INCIDENT_NUMBER_LABEL": "N71328",
        "INCIDENT_FIRE_YEAR": 2026,
        "FIRE_STATUS": "Being Held",
        "FIRE_SIZE_HECTARES": null,
        "TRACK_DATE": null,
        "FIRE_URL": "https://wildfiresituation.nrs.gov.bc.ca/incidents?fireYear=2026&incidentNumber=N71328",
        "DATA_SOURCE": "incident-point"
      }
    },
    {
      "type": "Feature",
      "id": "bcws-incident-N71570",
      "geometry": {
        "bbox": [
          -116.943217,
          49.146333,
          -116.943217,
          49.146333
        ],
        "type": "Point",
        "coordinates": [
          -116.943217,
          49.146333
        ]
      },
      "properties": {
        "FIRE_NUMBER": "N71570",
        "INCIDENT_NAME": "N71570",
        "INCIDENT_NUMBER_LABEL": "N71570",
        "INCIDENT_FIRE_YEAR": 2026,
        "FIRE_STATUS": "Being Held",
        "FIRE_SIZE_HECTARES": null,
        "TRACK_DATE": null,
        "FIRE_URL": "https://wildfiresituation.nrs.gov.bc.ca/incidents?fireYear=2026&incidentNumber=N71570",
        "DATA_SOURCE": "incident-point"
      }
    },
    {
      "type": "Feature",
      "id": "bcws-incident-C10988",
      "geometry": {
        "bbox": [
          -120.91,
          53.17,
          -120.91,
          53.17
        ],
        "type": "Point",
        "coordinates": [
          -120.91,
          53.17
        ]
      },
      "properties": {
        "FIRE_NUMBER": "C10988",
        "INCIDENT_NAME": "C10988",
        "INCIDENT_NUMBER_LABEL": "C10988",
        "INCIDENT_FIRE_YEAR": 2026,
        "FIRE_STATUS": "Being Held",
        "FIRE_SIZE_HECTARES": null,
        "TRACK_DATE": null,
        "FIRE_URL": "https://wildfiresituation.nrs.gov.bc.ca/incidents?fireYear=2026&incidentNumber=C10988",
        "DATA_SOURCE": "incident-point"
      }
    },
    {
      "type": "Feature",
      "id": "bcws-incident-N11396",
      "geometry": {
        "bbox": [
          -115.023617,
          49.178,
          -115.023617,
          49.178
        ],
        "type": "Point",
        "coordinates": [
          -115.023617,
          49.178
        ]
      },
      "properties": {
        "FIRE_NUMBER": "N11396",
        "INCIDENT_NAME": "N11396",
        "INCIDENT_NUMBER_LABEL": "N11396",
        "INCIDENT_FIRE_YEAR": 2026,
        "FIRE_STATUS": "Being Held",
        "FIRE_SIZE_HECTARES": null,
        "TRACK_DATE": null,
        "FIRE_URL": "https://wildfiresituation.nrs.gov.bc.ca/incidents?fireYear=2026&incidentNumber=N11396",
        "DATA_SOURCE": "incident-point"
      }
    },
    {
      "type": "Feature",
      "id": "bcws-incident-V81631",
      "geometry": {
        "bbox": [
          -126.243417,
          50.348217,
          -126.243417,
          50.348217
        ],
        "type": "Point",
        "coordinates": [
          -126.243417,
          50.348217
        ]
      },
      "properties": {
        "FIRE_NUMBER": "V81631",
        "INCIDENT_NAME": "V81631",
        "INCIDENT_NUMBER_LABEL": "V81631",
        "INCIDENT_FIRE_YEAR": 2026,
        "FIRE_STATUS": "Being Held",
        "FIRE_SIZE_HECTARES": null,
        "TRACK_DATE": null,
        "FIRE_URL": "https://wildfiresituation.nrs.gov.bc.ca/incidents?fireYear=2026&incidentNumber=V81631",
        "DATA_SOURCE": "incident-point"
      }
    },
    {
      "type": "Feature",
      "id": "bcws-incident-V91659",
      "geometry": {
        "bbox": [
          -126.308717,
          50.184217,
          -126.308717,
          50.184217
        ],
        "type": "Point",
        "coordinates": [
          -126.308717,
          50.184217
        ]
      },
      "properties": {
        "FIRE_NUMBER": "V91659",
        "INCIDENT_NAME": "V91659",
        "INCIDENT_NUMBER_LABEL": "V91659",
        "INCIDENT_FIRE_YEAR": 2026,
        "FIRE_STATUS": "Being Held",
        "FIRE_SIZE_HECTARES": null,
        "TRACK_DATE": null,
        "FIRE_URL": "https://wildfiresituation.nrs.gov.bc.ca/incidents?fireYear=2026&incidentNumber=V91659",
        "DATA_SOURCE": "incident-point"
      }
    },
    {
      "type": "Feature",
      "id": "bcws-incident-V91690",
      "geometry": {
        "bbox": [
          -126.54095,
          50.10575,
          -126.54095,
          50.10575
        ],
        "type": "Point",
        "coordinates": [
          -126.54095,
          50.10575
        ]
      },
      "properties": {
        "FIRE_NUMBER": "V91690",
        "INCIDENT_NAME": "V91690",
        "INCIDENT_NUMBER_LABEL": "V91690",
        "INCIDENT_FIRE_YEAR": 2026,
        "FIRE_STATUS": "Being Held",
        "FIRE_SIZE_HECTARES": null,
        "TRACK_DATE": null,
        "FIRE_URL": "https://wildfiresituation.nrs.gov.bc.ca/incidents?fireYear=2026&incidentNumber=V91690",
        "DATA_SOURCE": "incident-point"
      }
    },
    {
      "type": "Feature",
      "id": "bcws-incident-C51610",
      "geometry": {
        "bbox": [
          -124.132467,
          51.544917,
          -124.132467,
          51.544917
        ],
        "type": "Point",
        "coordinates": [
          -124.132467,
          51.544917
        ]
      },
      "properties": {
        "FIRE_NUMBER": "C51610",
        "INCIDENT_NAME": "C51610",
        "INCIDENT_NUMBER_LABEL": "C51610",
        "INCIDENT_FIRE_YEAR": 2026,
        "FIRE_STATUS": "Being Held",
        "FIRE_SIZE_HECTARES": null,
        "TRACK_DATE": null,
        "FIRE_URL": "https://wildfiresituation.nrs.gov.bc.ca/incidents?fireYear=2026&incidentNumber=C51610",
        "DATA_SOURCE": "incident-point"
      }
    },
    {
      "type": "Feature",
      "id": "bcws-incident-C51655",
      "geometry": {
        "bbox": [
          -124.230833,
          51.570817,
          -124.230833,
          51.570817
        ],
        "type": "Point",
        "coordinates": [
          -124.230833,
          51.570817
        ]
      },
      "properties": {
        "FIRE_NUMBER": "C51655",
        "INCIDENT_NAME": "C51655",
        "INCIDENT_NUMBER_LABEL": "C51655",
        "INCIDENT_FIRE_YEAR": 2026,
        "FIRE_STATUS": "Being Held",
        "FIRE_SIZE_HECTARES": null,
        "TRACK_DATE": null,
        "FIRE_URL": "https://wildfiresituation.nrs.gov.bc.ca/incidents?fireYear=2026&incidentNumber=C51655",
        "DATA_SOURCE": "incident-point"
      }
    },
    {
      "type": "Feature",
      "id": "bcws-incident-G31209",
      "geometry": {
        "bbox": [
          -119.200733,
          52.287067,
          -119.200733,
          52.287067
        ],
        "type": "Point",
        "coordinates": [
          -119.200733,
          52.287067
        ]
      },
      "properties": {
        "FIRE_NUMBER": "G31209",
        "INCIDENT_NAME": "G31209",
        "INCIDENT_NUMBER_LABEL": "G31209",
        "INCIDENT_FIRE_YEAR": 2026,
        "FIRE_STATUS": "Being Held",
        "FIRE_SIZE_HECTARES": null,
        "TRACK_DATE": null,
        "FIRE_URL": "https://wildfiresituation.nrs.gov.bc.ca/incidents?fireYear=2026&incidentNumber=G31209",
        "DATA_SOURCE": "incident-point"
      }
    },
    {
      "type": "Feature",
      "id": "bcws-incident-N41571",
      "geometry": {
        "bbox": [
          -118.393867,
          51.536,
          -118.393867,
          51.536
        ],
        "type": "Point",
        "coordinates": [
          -118.393867,
          51.536
        ]
      },
      "properties": {
        "FIRE_NUMBER": "N41571",
        "INCIDENT_NAME": "N41571",
        "INCIDENT_NUMBER_LABEL": "N41571",
        "INCIDENT_FIRE_YEAR": 2026,
        "FIRE_STATUS": "Being Held",
        "FIRE_SIZE_HECTARES": null,
        "TRACK_DATE": null,
        "FIRE_URL": "https://wildfiresituation.nrs.gov.bc.ca/incidents?fireYear=2026&incidentNumber=N41571",
        "DATA_SOURCE": "incident-point"
      }
    },
    {
      "type": "Feature",
      "id": "bcws-incident-N41569",
      "geometry": {
        "bbox": [
          -117.925917,
          51.4925,
          -117.925917,
          51.4925
        ],
        "type": "Point",
        "coordinates": [
          -117.925917,
          51.4925
        ]
      },
      "properties": {
        "FIRE_NUMBER": "N41569",
        "INCIDENT_NAME": "N41569",
        "INCIDENT_NUMBER_LABEL": "N41569",
        "INCIDENT_FIRE_YEAR": 2026,
        "FIRE_STATUS": "Being Held",
        "FIRE_SIZE_HECTARES": null,
        "TRACK_DATE": null,
        "FIRE_URL": "https://wildfiresituation.nrs.gov.bc.ca/incidents?fireYear=2026&incidentNumber=N41569",
        "DATA_SOURCE": "incident-point"
      }
    },
    {
      "type": "Feature",
      "id": "bcws-incident-C51473",
      "geometry": {
        "bbox": [
          -124.644491,
          52.392851,
          -124.644491,
          52.392851
        ],
        "type": "Point",
        "coordinates": [
          -124.644491,
          52.392851
        ]
      },
      "properties": {
        "FIRE_NUMBER": "C51473",
        "INCIDENT_NAME": "Palmer Creek",
        "INCIDENT_NUMBER_LABEL": "C51473",
        "INCIDENT_FIRE_YEAR": 2026,
        "FIRE_STATUS": "Being Held",
        "FIRE_SIZE_HECTARES": null,
        "TRACK_DATE": null,
        "FIRE_URL": "https://wildfiresituation.nrs.gov.bc.ca/incidents?fireYear=2026&incidentNumber=C51473",
        "DATA_SOURCE": "incident-point"
      }
    },
    {
      "type": "Feature",
      "id": "bcws-incident-N51440",
      "geometry": {
        "bbox": [
          -117.645833,
          50.867,
          -117.645833,
          50.867
        ],
        "type": "Point",
        "coordinates": [
          -117.645833,
          50.867
        ]
      },
      "properties": {
        "FIRE_NUMBER": "N51440",
        "INCIDENT_NAME": "N51440",
        "INCIDENT_NUMBER_LABEL": "N51440",
        "INCIDENT_FIRE_YEAR": 2026,
        "FIRE_STATUS": "Being Held",
        "FIRE_SIZE_HECTARES": null,
        "TRACK_DATE": null,
        "FIRE_URL": "https://wildfiresituation.nrs.gov.bc.ca/incidents?fireYear=2026&incidentNumber=N51440",
        "DATA_SOURCE": "incident-point"
      }
    },
    {
      "type": "Feature",
      "id": "bcws-incident-G81123",
      "geometry": {
        "bbox": [
          -120.808917,
          58.104383,
          -120.808917,
          58.104383
        ],
        "type": "Point",
        "coordinates": [
          -120.808917,
          58.104383
        ]
      },
      "properties": {
        "FIRE_NUMBER": "G81123",
        "INCIDENT_NAME": "G81123",
        "INCIDENT_NUMBER_LABEL": "G81123",
        "INCIDENT_FIRE_YEAR": 2026,
        "FIRE_STATUS": "Being Held",
        "FIRE_SIZE_HECTARES": null,
        "TRACK_DATE": null,
        "FIRE_URL": "https://wildfiresituation.nrs.gov.bc.ca/incidents?fireYear=2026&incidentNumber=G81123",
        "DATA_SOURCE": "incident-point"
      }
    },
    {
      "type": "Feature",
      "id": "bcws-incident-K41351",
      "geometry": {
        "bbox": [
          -119.412783,
          50.306533,
          -119.412783,
          50.306533
        ],
        "type": "Point",
        "coordinates": [
          -119.412783,
          50.306533
        ]
      },
      "properties": {
        "FIRE_NUMBER": "K41351",
        "INCIDENT_NAME": "Bradley Creek FSR",
        "INCIDENT_NUMBER_LABEL": "K41351",
        "INCIDENT_FIRE_YEAR": 2026,
        "FIRE_STATUS": "Being Held",
        "FIRE_SIZE_HECTARES": null,
        "TRACK_DATE": null,
        "FIRE_URL": "https://wildfiresituation.nrs.gov.bc.ca/incidents?fireYear=2026&incidentNumber=K41351",
        "DATA_SOURCE": "incident-point"
      }
    },
    {
      "type": "Feature",
      "id": "bcws-incident-G51587",
      "geometry": {
        "bbox": [
          -125.0849,
          54.722367,
          -125.0849,
          54.722367
        ],
        "type": "Point",
        "coordinates": [
          -125.0849,
          54.722367
        ]
      },
      "properties": {
        "FIRE_NUMBER": "G51587",
        "INCIDENT_NAME": "G51587",
        "INCIDENT_NUMBER_LABEL": "G51587",
        "INCIDENT_FIRE_YEAR": 2026,
        "FIRE_STATUS": "Being Held",
        "FIRE_SIZE_HECTARES": null,
        "TRACK_DATE": null,
        "FIRE_URL": "https://wildfiresituation.nrs.gov.bc.ca/incidents?fireYear=2026&incidentNumber=G51587",
        "DATA_SOURCE": "incident-point"
      }
    },
    {
      "type": "Feature",
      "id": "bcws-incident-N21239",
      "geometry": {
        "bbox": [
          -115.6098,
          49.945467,
          -115.6098,
          49.945467
        ],
        "type": "Point",
        "coordinates": [
          -115.6098,
          49.945467
        ]
      },
      "properties": {
        "FIRE_NUMBER": "N21239",
        "INCIDENT_NAME": "N21239",
        "INCIDENT_NUMBER_LABEL": "N21239",
        "INCIDENT_FIRE_YEAR": 2026,
        "FIRE_STATUS": "Under Control",
        "FIRE_SIZE_HECTARES": null,
        "TRACK_DATE": null,
        "FIRE_URL": "https://wildfiresituation.nrs.gov.bc.ca/incidents?fireYear=2026&incidentNumber=N21239",
        "DATA_SOURCE": "incident-point"
      }
    },
    {
      "type": "Feature",
      "id": "bcws-incident-V11644",
      "geometry": {
        "bbox": [
          -120.917383,
          49.095633,
          -120.917383,
          49.095633
        ],
        "type": "Point",
        "coordinates": [
          -120.917383,
          49.095633
        ]
      },
      "properties": {
        "FIRE_NUMBER": "V11644",
        "INCIDENT_NAME": "V11644",
        "INCIDENT_NUMBER_LABEL": "V11644",
        "INCIDENT_FIRE_YEAR": 2026,
        "FIRE_STATUS": "Under Control",
        "FIRE_SIZE_HECTARES": null,
        "TRACK_DATE": null,
        "FIRE_URL": "https://wildfiresituation.nrs.gov.bc.ca/incidents?fireYear=2026&incidentNumber=V11644",
        "DATA_SOURCE": "incident-point"
      }
    },
    {
      "type": "Feature",
      "id": "bcws-incident-V81603",
      "geometry": {
        "bbox": [
          -126.089667,
          49.925217,
          -126.089667,
          49.925217
        ],
        "type": "Point",
        "coordinates": [
          -126.089667,
          49.925217
        ]
      },
      "properties": {
        "FIRE_NUMBER": "V81603",
        "INCIDENT_NAME": "V81603",
        "INCIDENT_NUMBER_LABEL": "V81603",
        "INCIDENT_FIRE_YEAR": 2026,
        "FIRE_STATUS": "Under Control",
        "FIRE_SIZE_HECTARES": null,
        "TRACK_DATE": null,
        "FIRE_URL": "https://wildfiresituation.nrs.gov.bc.ca/incidents?fireYear=2026&incidentNumber=V81603",
        "DATA_SOURCE": "incident-point"
      }
    },
    {
      "type": "Feature",
      "id": "bcws-incident-N51601",
      "geometry": {
        "bbox": [
          -118.006533,
          50.16545,
          -118.006533,
          50.16545
        ],
        "type": "Point",
        "coordinates": [
          -118.006533,
          50.16545
        ]
      },
      "properties": {
        "FIRE_NUMBER": "N51601",
        "INCIDENT_NAME": "N51601",
        "INCIDENT_NUMBER_LABEL": "N51601",
        "INCIDENT_FIRE_YEAR": 2026,
        "FIRE_STATUS": "Under Control",
        "FIRE_SIZE_HECTARES": null,
        "TRACK_DATE": null,
        "FIRE_URL": "https://wildfiresituation.nrs.gov.bc.ca/incidents?fireYear=2026&incidentNumber=N51601",
        "DATA_SOURCE": "incident-point"
      }
    },
    {
      "type": "Feature",
      "id": "bcws-incident-N51512",
      "geometry": {
        "bbox": [
          -118.155167,
          50.084283,
          -118.155167,
          50.084283
        ],
        "type": "Point",
        "coordinates": [
          -118.155167,
          50.084283
        ]
      },
      "properties": {
        "FIRE_NUMBER": "N51512",
        "INCIDENT_NAME": "N51512",
        "INCIDENT_NUMBER_LABEL": "N51512",
        "INCIDENT_FIRE_YEAR": 2026,
        "FIRE_STATUS": "Under Control",
        "FIRE_SIZE_HECTARES": null,
        "TRACK_DATE": null,
        "FIRE_URL": "https://wildfiresituation.nrs.gov.bc.ca/incidents?fireYear=2026&incidentNumber=N51512",
        "DATA_SOURCE": "incident-point"
      }
    },
    {
      "type": "Feature",
      "id": "bcws-incident-V11109",
      "geometry": {
        "bbox": [
          -122.088283,
          49.680533,
          -122.088283,
          49.680533
        ],
        "type": "Point",
        "coordinates": [
          -122.088283,
          49.680533
        ]
      },
      "properties": {
        "FIRE_NUMBER": "V11109",
        "INCIDENT_NAME": "V11109",
        "INCIDENT_NUMBER_LABEL": "V11109",
        "INCIDENT_FIRE_YEAR": 2026,
        "FIRE_STATUS": "Under Control",
        "FIRE_SIZE_HECTARES": null,
        "TRACK_DATE": null,
        "FIRE_URL": "https://wildfiresituation.nrs.gov.bc.ca/incidents?fireYear=2026&incidentNumber=V11109",
        "DATA_SOURCE": "incident-point"
      }
    },
    {
      "type": "Feature",
      "id": "bcws-incident-V11496",
      "geometry": {
        "bbox": [
          -122.105783,
          49.373717,
          -122.105783,
          49.373717
        ],
        "type": "Point",
        "coordinates": [
          -122.105783,
          49.373717
        ]
      },
      "properties": {
        "FIRE_NUMBER": "V11496",
        "INCIDENT_NAME": "V11496",
        "INCIDENT_NUMBER_LABEL": "V11496",
        "INCIDENT_FIRE_YEAR": 2026,
        "FIRE_STATUS": "Under Control",
        "FIRE_SIZE_HECTARES": null,
        "TRACK_DATE": null,
        "FIRE_URL": "https://wildfiresituation.nrs.gov.bc.ca/incidents?fireYear=2026&incidentNumber=V11496",
        "DATA_SOURCE": "incident-point"
      }
    },
    {
      "type": "Feature",
      "id": "bcws-incident-N11326",
      "geometry": {
        "bbox": [
          -115.593633,
          49.117817,
          -115.593633,
          49.117817
        ],
        "type": "Point",
        "coordinates": [
          -115.593633,
          49.117817
        ]
      },
      "properties": {
        "FIRE_NUMBER": "N11326",
        "INCIDENT_NAME": "N11326",
        "INCIDENT_NUMBER_LABEL": "N11326",
        "INCIDENT_FIRE_YEAR": 2026,
        "FIRE_STATUS": "Under Control",
        "FIRE_SIZE_HECTARES": null,
        "TRACK_DATE": null,
        "FIRE_URL": "https://wildfiresituation.nrs.gov.bc.ca/incidents?fireYear=2026&incidentNumber=N11326",
        "DATA_SOURCE": "incident-point"
      }
    },
    {
      "type": "Feature",
      "id": "bcws-incident-R41118",
      "geometry": {
        "bbox": [
          -128.347983,
          54.986117,
          -128.347983,
          54.986117
        ],
        "type": "Point",
        "coordinates": [
          -128.347983,
          54.986117
        ]
      },
      "properties": {
        "FIRE_NUMBER": "R41118",
        "INCIDENT_NAME": "Coyote Creek",
        "INCIDENT_NUMBER_LABEL": "R41118",
        "INCIDENT_FIRE_YEAR": 2026,
        "FIRE_STATUS": "Under Control",
        "FIRE_SIZE_HECTARES": null,
        "TRACK_DATE": null,
        "FIRE_URL": "https://wildfiresituation.nrs.gov.bc.ca/incidents?fireYear=2026&incidentNumber=R41118",
        "DATA_SOURCE": "incident-point"
      }
    },
    {
      "type": "Feature",
      "id": "bcws-incident-R51693",
      "geometry": {
        "bbox": [
          -128.75075,
          54.67655,
          -128.75075,
          54.67655
        ],
        "type": "Point",
        "coordinates": [
          -128.75075,
          54.67655
        ]
      },
      "properties": {
        "FIRE_NUMBER": "R51693",
        "INCIDENT_NAME": "R51693",
        "INCIDENT_NUMBER_LABEL": "R51693",
        "INCIDENT_FIRE_YEAR": 2026,
        "FIRE_STATUS": "Under Control",
        "FIRE_SIZE_HECTARES": null,
        "TRACK_DATE": null,
        "FIRE_URL": "https://wildfiresituation.nrs.gov.bc.ca/incidents?fireYear=2026&incidentNumber=R51693",
        "DATA_SOURCE": "incident-point"
      }
    },
    {
      "type": "Feature",
      "id": "bcws-incident-C40923",
      "geometry": {
        "bbox": [
          -120.64055,
          51.647117,
          -120.64055,
          51.647117
        ],
        "type": "Point",
        "coordinates": [
          -120.64055,
          51.647117
        ]
      },
      "properties": {
        "FIRE_NUMBER": "C40923",
        "INCIDENT_NAME": "Bowers Lake",
        "INCIDENT_NUMBER_LABEL": "C40923",
        "INCIDENT_FIRE_YEAR": 2026,
        "FIRE_STATUS": "Under Control",
        "FIRE_SIZE_HECTARES": null,
        "TRACK_DATE": null,
        "FIRE_URL": "https://wildfiresituation.nrs.gov.bc.ca/incidents?fireYear=2026&incidentNumber=C40923",
        "DATA_SOURCE": "incident-point"
      }
    },
    {
      "type": "Feature",
      "id": "bcws-incident-C40784",
      "geometry": {
        "bbox": [
          -121.761817,
          51.409317,
          -121.761817,
          51.409317
        ],
        "type": "Point",
        "coordinates": [
          -121.761817,
          51.409317
        ]
      },
      "properties": {
        "FIRE_NUMBER": "C40784",
        "INCIDENT_NAME": "Valenzuela Lake",
        "INCIDENT_NUMBER_LABEL": "C40784",
        "INCIDENT_FIRE_YEAR": 2026,
        "FIRE_STATUS": "Under Control",
        "FIRE_SIZE_HECTARES": null,
        "TRACK_DATE": null,
        "FIRE_URL": "https://wildfiresituation.nrs.gov.bc.ca/incidents?fireYear=2026&incidentNumber=C40784",
        "DATA_SOURCE": "incident-point"
      }
    },
    {
      "type": "Feature",
      "id": "bcws-incident-V71647",
      "geometry": {
        "bbox": [
          -124.809083,
          49.431717,
          -124.809083,
          49.431717
        ],
        "type": "Point",
        "coordinates": [
          -124.809083,
          49.431717
        ]
      },
      "properties": {
        "FIRE_NUMBER": "V71647",
        "INCIDENT_NAME": "V71647",
        "INCIDENT_NUMBER_LABEL": "V71647",
        "INCIDENT_FIRE_YEAR": 2026,
        "FIRE_STATUS": "Under Control",
        "FIRE_SIZE_HECTARES": null,
        "TRACK_DATE": null,
        "FIRE_URL": "https://wildfiresituation.nrs.gov.bc.ca/incidents?fireYear=2026&incidentNumber=V71647",
        "DATA_SOURCE": "incident-point"
      }
    },
    {
      "type": "Feature",
      "id": "bcws-incident-N11684",
      "geometry": {
        "bbox": [
          -115.91778,
          49.6443,
          -115.91778,
          49.6443
        ],
        "type": "Point",
        "coordinates": [
          -115.91778,
          49.6443
        ]
      },
      "properties": {
        "FIRE_NUMBER": "N11684",
        "INCIDENT_NAME": "N11684",
        "INCIDENT_NUMBER_LABEL": "N11684",
        "INCIDENT_FIRE_YEAR": 2026,
        "FIRE_STATUS": "Under Control",
        "FIRE_SIZE_HECTARES": null,
        "TRACK_DATE": null,
        "FIRE_URL": "https://wildfiresituation.nrs.gov.bc.ca/incidents?fireYear=2026&incidentNumber=N11684",
        "DATA_SOURCE": "incident-point"
      }
    },
    {
      "type": "Feature",
      "id": "bcws-incident-V31008",
      "geometry": {
        "bbox": [
          -123.334367,
          49.888367,
          -123.334367,
          49.888367
        ],
        "type": "Point",
        "coordinates": [
          -123.334367,
          49.888367
        ]
      },
      "properties": {
        "FIRE_NUMBER": "V31008",
        "INCIDENT_NAME": "V31008",
        "INCIDENT_NUMBER_LABEL": "V31008",
        "INCIDENT_FIRE_YEAR": 2026,
        "FIRE_STATUS": "Under Control",
        "FIRE_SIZE_HECTARES": null,
        "TRACK_DATE": null,
        "FIRE_URL": "https://wildfiresituation.nrs.gov.bc.ca/incidents?fireYear=2026&incidentNumber=V31008",
        "DATA_SOURCE": "incident-point"
      }
    },
    {
      "type": "Feature",
      "id": "bcws-incident-K21320",
      "geometry": {
        "bbox": [
          -120.84775,
          50.490483,
          -120.84775,
          50.490483
        ],
        "type": "Point",
        "coordinates": [
          -120.84775,
          50.490483
        ]
      },
      "properties": {
        "FIRE_NUMBER": "K21320",
        "INCIDENT_NAME": "K21320",
        "INCIDENT_NUMBER_LABEL": "K21320",
        "INCIDENT_FIRE_YEAR": 2026,
        "FIRE_STATUS": "Under Control",
        "FIRE_SIZE_HECTARES": null,
        "TRACK_DATE": null,
        "FIRE_URL": "https://wildfiresituation.nrs.gov.bc.ca/incidents?fireYear=2026&incidentNumber=K21320",
        "DATA_SOURCE": "incident-point"
      }
    },
    {
      "type": "Feature",
      "id": "bcws-incident-N41579",
      "geometry": {
        "bbox": [
          -116.8846,
          51.332717,
          -116.8846,
          51.332717
        ],
        "type": "Point",
        "coordinates": [
          -116.8846,
          51.332717
        ]
      },
      "properties": {
        "FIRE_NUMBER": "N41579",
        "INCIDENT_NAME": "N41579",
        "INCIDENT_NUMBER_LABEL": "N41579",
        "INCIDENT_FIRE_YEAR": 2026,
        "FIRE_STATUS": "Under Control",
        "FIRE_SIZE_HECTARES": null,
        "TRACK_DATE": null,
        "FIRE_URL": "https://wildfiresituation.nrs.gov.bc.ca/incidents?fireYear=2026&incidentNumber=N41579",
        "DATA_SOURCE": "incident-point"
      }
    },
    {
      "type": "Feature",
      "id": "bcws-incident-N71406",
      "geometry": {
        "bbox": [
          -116.337117,
          49.002667,
          -116.337117,
          49.002667
        ],
        "type": "Point",
        "coordinates": [
          -116.337117,
          49.002667
        ]
      },
      "properties": {
        "FIRE_NUMBER": "N71406",
        "INCIDENT_NAME": "N71406",
        "INCIDENT_NUMBER_LABEL": "N71406",
        "INCIDENT_FIRE_YEAR": 2026,
        "FIRE_STATUS": "Under Control",
        "FIRE_SIZE_HECTARES": null,
        "TRACK_DATE": null,
        "FIRE_URL": "https://wildfiresituation.nrs.gov.bc.ca/incidents?fireYear=2026&incidentNumber=N71406",
        "DATA_SOURCE": "incident-point"
      }
    },
    {
      "type": "Feature",
      "id": "bcws-incident-K51522",
      "geometry": {
        "bbox": [
          -119.16545,
          49.651583,
          -119.16545,
          49.651583
        ],
        "type": "Point",
        "coordinates": [
          -119.16545,
          49.651583
        ]
      },
      "properties": {
        "FIRE_NUMBER": "K51522",
        "INCIDENT_NAME": "K51522",
        "INCIDENT_NUMBER_LABEL": "K51522",
        "INCIDENT_FIRE_YEAR": 2026,
        "FIRE_STATUS": "Under Control",
        "FIRE_SIZE_HECTARES": null,
        "TRACK_DATE": null,
        "FIRE_URL": "https://wildfiresituation.nrs.gov.bc.ca/incidents?fireYear=2026&incidentNumber=K51522",
        "DATA_SOURCE": "incident-point"
      }
    },
    {
      "type": "Feature",
      "id": "bcws-incident-C10467",
      "geometry": {
        "bbox": [
          -124.146317,
          53.35255,
          -124.146317,
          53.35255
        ],
        "type": "Point",
        "coordinates": [
          -124.146317,
          53.35255
        ]
      },
      "properties": {
        "FIRE_NUMBER": "C10467",
        "INCIDENT_NAME": "Swede Creek",
        "INCIDENT_NUMBER_LABEL": "C10467",
        "INCIDENT_FIRE_YEAR": 2026,
        "FIRE_STATUS": "Under Control",
        "FIRE_SIZE_HECTARES": null,
        "TRACK_DATE": null,
        "FIRE_URL": "https://wildfiresituation.nrs.gov.bc.ca/incidents?fireYear=2026&incidentNumber=C10467",
        "DATA_SOURCE": "incident-point"
      }
    },
    {
      "type": "Feature",
      "id": "bcws-incident-C10952",
      "geometry": {
        "bbox": [
          -123.989867,
          53.16905,
          -123.989867,
          53.16905
        ],
        "type": "Point",
        "coordinates": [
          -123.989867,
          53.16905
        ]
      },
      "properties": {
        "FIRE_NUMBER": "C10952",
        "INCIDENT_NAME": "C10952",
        "INCIDENT_NUMBER_LABEL": "C10952",
        "INCIDENT_FIRE_YEAR": 2026,
        "FIRE_STATUS": "Under Control",
        "FIRE_SIZE_HECTARES": null,
        "TRACK_DATE": null,
        "FIRE_URL": "https://wildfiresituation.nrs.gov.bc.ca/incidents?fireYear=2026&incidentNumber=C10952",
        "DATA_SOURCE": "incident-point"
      }
    },
    {
      "type": "Feature",
      "id": "bcws-incident-C11112",
      "geometry": {
        "bbox": [
          -124.01185,
          53.404317,
          -124.01185,
          53.404317
        ],
        "type": "Point",
        "coordinates": [
          -124.01185,
          53.404317
        ]
      },
      "properties": {
        "FIRE_NUMBER": "C11112",
        "INCIDENT_NAME": "Bourgeois Creek",
        "INCIDENT_NUMBER_LABEL": "C11112",
        "INCIDENT_FIRE_YEAR": 2026,
        "FIRE_STATUS": "Under Control",
        "FIRE_SIZE_HECTARES": null,
        "TRACK_DATE": null,
        "FIRE_URL": "https://wildfiresituation.nrs.gov.bc.ca/incidents?fireYear=2026&incidentNumber=C11112",
        "DATA_SOURCE": "incident-point"
      }
    },
    {
      "type": "Feature",
      "id": "bcws-incident-V81629",
      "geometry": {
        "bbox": [
          -126.260967,
          50.329783,
          -126.260967,
          50.329783
        ],
        "type": "Point",
        "coordinates": [
          -126.260967,
          50.329783
        ]
      },
      "properties": {
        "FIRE_NUMBER": "V81629",
        "INCIDENT_NAME": "V81629",
        "INCIDENT_NUMBER_LABEL": "V81629",
        "INCIDENT_FIRE_YEAR": 2026,
        "FIRE_STATUS": "Under Control",
        "FIRE_SIZE_HECTARES": null,
        "TRACK_DATE": null,
        "FIRE_URL": "https://wildfiresituation.nrs.gov.bc.ca/incidents?fireYear=2026&incidentNumber=V81629",
        "DATA_SOURCE": "incident-point"
      }
    },
    {
      "type": "Feature",
      "id": "bcws-incident-V81627",
      "geometry": {
        "bbox": [
          -126.25795,
          50.321283,
          -126.25795,
          50.321283
        ],
        "type": "Point",
        "coordinates": [
          -126.25795,
          50.321283
        ]
      },
      "properties": {
        "FIRE_NUMBER": "V81627",
        "INCIDENT_NAME": "V81627",
        "INCIDENT_NUMBER_LABEL": "V81627",
        "INCIDENT_FIRE_YEAR": 2026,
        "FIRE_STATUS": "Under Control",
        "FIRE_SIZE_HECTARES": null,
        "TRACK_DATE": null,
        "FIRE_URL": "https://wildfiresituation.nrs.gov.bc.ca/incidents?fireYear=2026&incidentNumber=V81627",
        "DATA_SOURCE": "incident-point"
      }
    },
    {
      "type": "Feature",
      "id": "bcws-incident-V91652",
      "geometry": {
        "bbox": [
          -126.5938,
          50.111733,
          -126.5938,
          50.111733
        ],
        "type": "Point",
        "coordinates": [
          -126.5938,
          50.111733
        ]
      },
      "properties": {
        "FIRE_NUMBER": "V91652",
        "INCIDENT_NAME": "V91652",
        "INCIDENT_NUMBER_LABEL": "V91652",
        "INCIDENT_FIRE_YEAR": 2026,
        "FIRE_STATUS": "Under Control",
        "FIRE_SIZE_HECTARES": null,
        "TRACK_DATE": null,
        "FIRE_URL": "https://wildfiresituation.nrs.gov.bc.ca/incidents?fireYear=2026&incidentNumber=V91652",
        "DATA_SOURCE": "incident-point"
      }
    },
    {
      "type": "Feature",
      "id": "bcws-incident-G80488",
      "geometry": {
        "bbox": [
          -122.739517,
          57.39345,
          -122.739517,
          57.39345
        ],
        "type": "Point",
        "coordinates": [
          -122.739517,
          57.39345
        ]
      },
      "properties": {
        "FIRE_NUMBER": "G80488",
        "INCIDENT_NAME": "G80488",
        "INCIDENT_NUMBER_LABEL": "G80488",
        "INCIDENT_FIRE_YEAR": 2026,
        "FIRE_STATUS": "Under Control",
        "FIRE_SIZE_HECTARES": null,
        "TRACK_DATE": null,
        "FIRE_URL": "https://wildfiresituation.nrs.gov.bc.ca/incidents?fireYear=2026&incidentNumber=G80488",
        "DATA_SOURCE": "incident-point"
      }
    },
    {
      "type": "Feature",
      "id": "bcws-incident-V91677",
      "geometry": {
        "bbox": [
          -126.76355,
          50.21755,
          -126.76355,
          50.21755
        ],
        "type": "Point",
        "coordinates": [
          -126.76355,
          50.21755
        ]
      },
      "properties": {
        "FIRE_NUMBER": "V91677",
        "INCIDENT_NAME": "V91677",
        "INCIDENT_NUMBER_LABEL": "V91677",
        "INCIDENT_FIRE_YEAR": 2026,
        "FIRE_STATUS": "Under Control",
        "FIRE_SIZE_HECTARES": null,
        "TRACK_DATE": null,
        "FIRE_URL": "https://wildfiresituation.nrs.gov.bc.ca/incidents?fireYear=2026&incidentNumber=V91677",
        "DATA_SOURCE": "incident-point"
      }
    },
    {
      "type": "Feature",
      "id": "bcws-incident-N71628",
      "geometry": {
        "bbox": [
          -117.379467,
          50.591217,
          -117.379467,
          50.591217
        ],
        "type": "Point",
        "coordinates": [
          -117.379467,
          50.591217
        ]
      },
      "properties": {
        "FIRE_NUMBER": "N71628",
        "INCIDENT_NAME": "N71628",
        "INCIDENT_NUMBER_LABEL": "N71628",
        "INCIDENT_FIRE_YEAR": 2026,
        "FIRE_STATUS": "Under Control",
        "FIRE_SIZE_HECTARES": null,
        "TRACK_DATE": null,
        "FIRE_URL": "https://wildfiresituation.nrs.gov.bc.ca/incidents?fireYear=2026&incidentNumber=N71628",
        "DATA_SOURCE": "incident-point"
      }
    },
    {
      "type": "Feature",
      "id": "bcws-incident-R81663",
      "geometry": {
        "bbox": [
          -129.780533,
          54.223617,
          -129.780533,
          54.223617
        ],
        "type": "Point",
        "coordinates": [
          -129.780533,
          54.223617
        ]
      },
      "properties": {
        "FIRE_NUMBER": "R81663",
        "INCIDENT_NAME": "R81663",
        "INCIDENT_NUMBER_LABEL": "R81663",
        "INCIDENT_FIRE_YEAR": 2026,
        "FIRE_STATUS": "Under Control",
        "FIRE_SIZE_HECTARES": null,
        "TRACK_DATE": null,
        "FIRE_URL": "https://wildfiresituation.nrs.gov.bc.ca/incidents?fireYear=2026&incidentNumber=R81663",
        "DATA_SOURCE": "incident-point"
      }
    },
    {
      "type": "Feature",
      "id": "bcws-incident-V11615",
      "geometry": {
        "bbox": [
          -122.385733,
          49.607683,
          -122.385733,
          49.607683
        ],
        "type": "Point",
        "coordinates": [
          -122.385733,
          49.607683
        ]
      },
      "properties": {
        "FIRE_NUMBER": "V11615",
        "INCIDENT_NAME": "V11615",
        "INCIDENT_NUMBER_LABEL": "V11615",
        "INCIDENT_FIRE_YEAR": 2026,
        "FIRE_STATUS": "Under Control",
        "FIRE_SIZE_HECTARES": null,
        "TRACK_DATE": null,
        "FIRE_URL": "https://wildfiresituation.nrs.gov.bc.ca/incidents?fireYear=2026&incidentNumber=V11615",
        "DATA_SOURCE": "incident-point"
      }
    },
    {
      "type": "Feature",
      "id": "bcws-incident-V11620",
      "geometry": {
        "bbox": [
          -122.380217,
          49.609083,
          -122.380217,
          49.609083
        ],
        "type": "Point",
        "coordinates": [
          -122.380217,
          49.609083
        ]
      },
      "properties": {
        "FIRE_NUMBER": "V11620",
        "INCIDENT_NAME": "V11620",
        "INCIDENT_NUMBER_LABEL": "V11620",
        "INCIDENT_FIRE_YEAR": 2026,
        "FIRE_STATUS": "Under Control",
        "FIRE_SIZE_HECTARES": null,
        "TRACK_DATE": null,
        "FIRE_URL": "https://wildfiresituation.nrs.gov.bc.ca/incidents?fireYear=2026&incidentNumber=V11620",
        "DATA_SOURCE": "incident-point"
      }
    },
    {
      "type": "Feature",
      "id": "bcws-incident-V11626",
      "geometry": {
        "bbox": [
          -123.154433,
          49.531633,
          -123.154433,
          49.531633
        ],
        "type": "Point",
        "coordinates": [
          -123.154433,
          49.531633
        ]
      },
      "properties": {
        "FIRE_NUMBER": "V11626",
        "INCIDENT_NAME": "V11626",
        "INCIDENT_NUMBER_LABEL": "V11626",
        "INCIDENT_FIRE_YEAR": 2026,
        "FIRE_STATUS": "Under Control",
        "FIRE_SIZE_HECTARES": null,
        "TRACK_DATE": null,
        "FIRE_URL": "https://wildfiresituation.nrs.gov.bc.ca/incidents?fireYear=2026&incidentNumber=V11626",
        "DATA_SOURCE": "incident-point"
      }
    },
    {
      "type": "Feature",
      "id": "bcws-incident-K41698",
      "geometry": {
        "bbox": [
          -119.456016,
          50.325417,
          -119.456016,
          50.325417
        ],
        "type": "Point",
        "coordinates": [
          -119.456016,
          50.325417
        ]
      },
      "properties": {
        "FIRE_NUMBER": "K41698",
        "INCIDENT_NAME": "K41698",
        "INCIDENT_NUMBER_LABEL": "K41698",
        "INCIDENT_FIRE_YEAR": 2026,
        "FIRE_STATUS": "Under Control",
        "FIRE_SIZE_HECTARES": null,
        "TRACK_DATE": null,
        "FIRE_URL": "https://wildfiresituation.nrs.gov.bc.ca/incidents?fireYear=2026&incidentNumber=K41698",
        "DATA_SOURCE": "incident-point"
      }
    },
    {
      "type": "Feature",
      "id": "bcws-incident-C21127",
      "geometry": {
        "bbox": [
          -121.941883,
          51.95575,
          -121.941883,
          51.95575
        ],
        "type": "Point",
        "coordinates": [
          -121.941883,
          51.95575
        ]
      },
      "properties": {
        "FIRE_NUMBER": "C21127",
        "INCIDENT_NAME": "Felker Fire",
        "INCIDENT_NUMBER_LABEL": "C21127",
        "INCIDENT_FIRE_YEAR": 2026,
        "FIRE_STATUS": "Under Control",
        "FIRE_SIZE_HECTARES": null,
        "TRACK_DATE": null,
        "FIRE_URL": "https://wildfiresituation.nrs.gov.bc.ca/incidents?fireYear=2026&incidentNumber=C21127",
        "DATA_SOURCE": "incident-point"
      }
    },
    {
      "type": "Feature",
      "id": "bcws-incident-C41452",
      "geometry": {
        "bbox": [
          -121.936317,
          51.17145,
          -121.936317,
          51.17145
        ],
        "type": "Point",
        "coordinates": [
          -121.936317,
          51.17145
        ]
      },
      "properties": {
        "FIRE_NUMBER": "C41452",
        "INCIDENT_NAME": "C41452",
        "INCIDENT_NUMBER_LABEL": "C41452",
        "INCIDENT_FIRE_YEAR": 2026,
        "FIRE_STATUS": "Under Control",
        "FIRE_SIZE_HECTARES": null,
        "TRACK_DATE": null,
        "FIRE_URL": "https://wildfiresituation.nrs.gov.bc.ca/incidents?fireYear=2026&incidentNumber=C41452",
        "DATA_SOURCE": "incident-point"
      }
    },
    {
      "type": "Feature",
      "id": "bcws-incident-G91077",
      "geometry": {
        "bbox": [
          -123.491917,
          58.657533,
          -123.491917,
          58.657533
        ],
        "type": "Point",
        "coordinates": [
          -123.491917,
          58.657533
        ]
      },
      "properties": {
        "FIRE_NUMBER": "G91077",
        "INCIDENT_NAME": "G91077",
        "INCIDENT_NUMBER_LABEL": "G91077",
        "INCIDENT_FIRE_YEAR": 2026,
        "FIRE_STATUS": "Under Control",
        "FIRE_SIZE_HECTARES": null,
        "TRACK_DATE": null,
        "FIRE_URL": "https://wildfiresituation.nrs.gov.bc.ca/incidents?fireYear=2026&incidentNumber=G91077",
        "DATA_SOURCE": "incident-point"
      }
    },
    {
      "type": "Feature",
      "id": "bcws-incident-K51402",
      "geometry": {
        "bbox": [
          -119.50545,
          50.0931,
          -119.50545,
          50.0931
        ],
        "type": "Point",
        "coordinates": [
          -119.50545,
          50.0931
        ]
      },
      "properties": {
        "FIRE_NUMBER": "K51402",
        "INCIDENT_NAME": "Quilpituk Creek",
        "INCIDENT_NUMBER_LABEL": "K51402",
        "INCIDENT_FIRE_YEAR": 2026,
        "FIRE_STATUS": "Under Control",
        "FIRE_SIZE_HECTARES": null,
        "TRACK_DATE": null,
        "FIRE_URL": "https://wildfiresituation.nrs.gov.bc.ca/incidents?fireYear=2026&incidentNumber=K51402",
        "DATA_SOURCE": "incident-point"
      }
    },
    {
      "type": "Feature",
      "id": "bcws-incident-N20809",
      "geometry": {
        "bbox": [
          -115.700033,
          49.948267,
          -115.700033,
          49.948267
        ],
        "type": "Point",
        "coordinates": [
          -115.700033,
          49.948267
        ]
      },
      "properties": {
        "FIRE_NUMBER": "N20809",
        "INCIDENT_NAME": "Lussier River ",
        "INCIDENT_NUMBER_LABEL": "N20809",
        "INCIDENT_FIRE_YEAR": 2026,
        "FIRE_STATUS": "Under Control",
        "FIRE_SIZE_HECTARES": null,
        "TRACK_DATE": null,
        "FIRE_URL": "https://wildfiresituation.nrs.gov.bc.ca/incidents?fireYear=2026&incidentNumber=N20809",
        "DATA_SOURCE": "incident-point"
      }
    },
    {
      "type": "Feature",
      "id": "bcws-incident-N11360",
      "geometry": {
        "bbox": [
          -115.812233,
          49.70885,
          -115.812233,
          49.70885
        ],
        "type": "Point",
        "coordinates": [
          -115.812233,
          49.70885
        ]
      },
      "properties": {
        "FIRE_NUMBER": "N11360",
        "INCIDENT_NAME": "Wait Creek",
        "INCIDENT_NUMBER_LABEL": "N11360",
        "INCIDENT_FIRE_YEAR": 2026,
        "FIRE_STATUS": "Under Control",
        "FIRE_SIZE_HECTARES": null,
        "TRACK_DATE": null,
        "FIRE_URL": "https://wildfiresituation.nrs.gov.bc.ca/incidents?fireYear=2026&incidentNumber=N11360",
        "DATA_SOURCE": "incident-point"
      }
    }
  ],
  "metadata": {
    "source": "https://wildfiresituation.nrs.gov.bc.ca/wfnews-api/publicPublishedIncident/features",
    "incident_point_count": 125,
    "generated_at_utc": "2026-08-19T07:55:35+00:00",
    "note": "Active BCWS incidents without a published perimeter."
  }
}
